{"type": "FeatureCollection", "features": [{"type": "Feature", "id": "TCHAMBA", "properties": {"map_key": "TCHAMBA", "libelle": "Tchamba"}, "geometry": {"type": "Polygon", "coordinates": [[[1.621503435000022, 8.365959170000053], [1.61974, 8.3741], [1.62775, 8.41428], [1.62658, 8.42897], [1.63303, 8.43954], [1.6302, 8.44951], [1.65019, 8.47767], [1.64899, 8.49075], [1.63112, 8.51869], [1.62857, 8.64771], [1.63311, 8.79376], [1.62929, 8.82934], [1.62967, 8.90897], [1.62241, 8.95456], [1.62974, 8.99912], [1.62483, 9.04229], [1.61602, 9.06341], [1.617599625000025, 9.070920827000066], [1.60564, 9.09728], [1.59773, 9.11149], [1.57915, 9.13164], [1.559119831000032, 9.170150159000059], [1.52597, 9.1907], [1.47767, 9.23691], [1.4621, 9.25477], [1.450081687000022, 9.278937317000043], [1.438055992000045, 9.259721756000033], [1.432500005000065, 9.231388092000032], [1.396667004000051, 9.195833206000032], [1.396667004000051, 9.172500610000043], [1.41138899300006, 9.125], [1.40805602100005, 9.11416721300003], [1.396944046000044, 9.097499847000051], [1.390277982000043, 9.06916618300005], [1.375833035000028, 9.055555344000027], [1.371943951000048, 9.04583358800005], [1.373056054000074, 9.019444466000039], [1.378888965000044, 9.004722595000032], [1.379721999000026, 8.99222278600007], [1.35972201800007, 8.94944477100006], [1.367499948000045, 8.936111450000055], [1.366667032000066, 8.925277710000046], [1.364166975000046, 8.921389580000039], [1.358610988000066, 8.921389580000039], [1.34888899300006, 8.932778358000064], [1.344722033000039, 8.916666985000063], [1.325278044000072, 8.887222290000068], [1.303611040000021, 8.88194465600003], [1.301388979000023, 8.876667023000039], [1.31361103100005, 8.867500305000021], [1.309721947000071, 8.845832825000059], [1.323333025000068, 8.818055153000046], [1.326388955000027, 8.801944733000028], [1.308333039000047, 8.792222977000051], [1.302500010000074, 8.784444809000036], [1.301944017000039, 8.77833271000003], [1.306388974000072, 8.76888847400005], [1.303889036000044, 8.759444237000025], [1.278610945000025, 8.743055344000027], [1.272222042000067, 8.73527813000004], [1.276666999000042, 8.719721794000066], [1.275277972000026, 8.714444160000028], [1.24444401300002, 8.696389198000077], [1.243888974000072, 8.690278053000043], [1.248332977000075, 8.681388855000023], [1.258332968000047, 8.676944733000028], [1.260555983000074, 8.671667099000047], [1.248332977000075, 8.621944427000074], [1.251389027000073, 8.58722209900003], [1.242499948000045, 8.560555458000067], [1.25250005700002, 8.555833817000064], [1.263888955000027, 8.558055878000062], [1.269166946000041, 8.555833817000064], [1.268610954000053, 8.549166679000052], [1.262222052000027, 8.542222977000051], [1.253610969000022, 8.536389351000025], [1.235000014000036, 8.53166675600005], [1.227777958000047, 8.518610954000053], [1.226943970000036, 8.511666298000023], [1.238332987000035, 8.482777596000062], [1.227221966000059, 8.460000038000032], [1.226389050000023, 8.44055557300004], [1.221111059000066, 8.42472267200003], [1.222221971000067, 8.412221909000039], [1.232777953000038, 8.388055801000064], [1.227499962000024, 8.373611450000055], [1.621503435000022, 8.365959170000053]]]}}, {"type": "Feature", "id": "TCHAOUDJO", "properties": {"map_key": "TCHAOUDJO", "libelle": "Tchaoudjo"}, "geometry": {"type": "Polygon", "coordinates": [[[1.450081687000022, 9.278937317000043], [1.431233457000076, 9.297813451000025], [1.367499948000045, 9.251388550000058], [1.333055973000057, 9.250278473000037], [1.280833006000023, 9.236389160000044], [1.223055959000021, 9.21583271000003], [1.174721956000042, 9.212499619000027], [1.11944401300002, 9.225832939000043], [1.087777972000026, 9.22999954200003], [1.070556045000046, 9.22777652700006], [1.038056016000041, 9.212777138000035], [1.01866102200006, 9.213599205000037], [0.995277822000048, 9.201666832000058], [0.985833287000048, 9.174445152000033], [0.987222314000064, 9.106945038000049], [1.003056049000065, 9.06916618300005], [0.999722183000074, 9.059166908000066], [0.981388927000069, 9.050277710000046], [0.963055611000073, 9.025277138000035], [0.950833321000061, 9.017777443000057], [0.873610973000041, 9.004166603000044], [0.883333325000024, 8.99222278600007], [0.887222171000076, 8.981944084000077], [0.893333316000053, 8.950277328000027], [0.903888881000057, 8.920556068000053], [0.910833299000046, 8.914166451000028], [0.921666682000023, 8.910277367000049], [0.946388900000045, 8.906944275000058], [0.962499976000061, 8.89388847400005], [0.970277727000052, 8.875834465000025], [0.975277722000044, 8.835832596000046], [0.980000019000045, 8.820555687000024], [0.988333285000067, 8.809444427000074], [1.015833020000059, 8.793055534000075], [1.027222037000058, 8.777221680000025], [1.044999957000073, 8.76694393200006], [1.065554976000044, 8.74583339700007], [1.096667051000054, 8.747222900000054], [1.11944401300002, 8.734167099000047], [1.126389027000073, 8.73333358800005], [1.152500033000024, 8.740278244000024], [1.175832987000035, 8.74222278600007], [1.187777996000023, 8.738056183000026], [1.200278044000072, 8.724444389000041], [1.208611012000063, 8.699166298000023], [1.215278029000046, 8.691389084000036], [1.240000010000074, 8.68166732800006], [1.248332977000075, 8.681388855000023], [1.243888974000072, 8.690278053000043], [1.24444401300002, 8.696389198000077], [1.275277972000026, 8.714444160000028], [1.276666999000042, 8.719721794000066], [1.272222042000067, 8.73527813000004], [1.278610945000025, 8.743055344000027], [1.303889036000044, 8.759444237000025], [1.306388974000072, 8.76888847400005], [1.301944017000039, 8.77833271000003], [1.302500010000074, 8.784444809000036], [1.308333039000047, 8.792222977000051], [1.326388955000027, 8.801944733000028], [1.323333025000068, 8.818055153000046], [1.309721947000071, 8.845832825000059], [1.31361103100005, 8.867500305000021], [1.301388979000023, 8.876667023000039], [1.303611040000021, 8.88194465600003], [1.325278044000072, 8.887222290000068], [1.344722033000039, 8.916666985000063], [1.34888899300006, 8.932778358000064], [1.358610988000066, 8.921389580000039], [1.364166975000046, 8.921389580000039], [1.366667032000066, 8.925277710000046], [1.367499948000045, 8.936111450000055], [1.35972201800007, 8.94944477100006], [1.379721999000026, 8.99222278600007], [1.378888965000044, 9.004722595000032], [1.373056054000074, 9.019444466000039], [1.371943951000048, 9.04583358800005], [1.375833035000028, 9.055555344000027], [1.390277982000043, 9.06916618300005], [1.396944046000044, 9.097499847000051], [1.40805602100005, 9.11416721300003], [1.41138899300006, 9.125], [1.396667004000051, 9.172500610000043], [1.396667004000051, 9.195833206000032], [1.432500005000065, 9.231388092000032], [1.438055992000045, 9.259721756000033], [1.450081687000022, 9.278937317000043]]]}}, {"type": "Feature", "id": "ASSOLI", "properties": {"map_key": "ASSOLI", "libelle": "Assoli"}, "geometry": {"type": "Polygon", "coordinates": [[[1.431233457000076, 9.297813451000025], [1.42092, 9.30743], [1.40807, 9.33449], [1.40312, 9.35491], [1.40133570100005, 9.425408838000067], [1.371667027000058, 9.446944237000025], [1.349722028000031, 9.444722176000028], [1.291666985000063, 9.429166794000025], [1.23611104500003, 9.441111565000028], [1.225833058000035, 9.438055992000045], [1.200278044000072, 9.422222137000063], [1.179167032000066, 9.417778015000067], [1.166944027000056, 9.419722557000057], [1.147778034000055, 9.431111336000072], [1.142222047000075, 9.43027782400003], [1.132222056000046, 9.411944389000041], [1.118610978000049, 9.404443741000023], [1.093888998000068, 9.409443855000063], [1.082499981000069, 9.408055305000062], [1.066388965000044, 9.413332939000043], [1.033889055000031, 9.405833244000064], [1.011389017000056, 9.412499428000046], [1.000833035000028, 9.42277813000004], [0.983888924000041, 9.453888893000055], [0.971944392000069, 9.403888702000074], [0.956944406000048, 9.384166718000074], [0.955555618000062, 9.37805557300004], [0.958333313000026, 9.336111069000026], [0.964722216000041, 9.329722404000051], [0.984722316000045, 9.320555687000024], [1.00666701800003, 9.29388904600006], [1.023056030000021, 9.288611412000023], [1.029167056000063, 9.280277252000076], [1.03305602100005, 9.266111374000047], [1.033611059000066, 9.240278244000024], [1.025555015000066, 9.21916580200002], [1.01866102200006, 9.213599205000037], [1.038056016000041, 9.212777138000035], [1.070556045000046, 9.22777652700006], [1.087777972000026, 9.22999954200003], [1.11944401300002, 9.225832939000043], [1.174721956000042, 9.212499619000027], [1.223055959000021, 9.21583271000003], [1.280833006000023, 9.236389160000044], [1.333055973000057, 9.250278473000037], [1.367499948000045, 9.251388550000058], [1.431233457000076, 9.297813451000025]]]}}, {"type": "Feature", "id": "BINAH", "properties": {"map_key": "BINAH", "libelle": "Binah"}, "geometry": {"type": "Polygon", "coordinates": [[[1.361441016000072, 9.483250618000056], [1.35852, 9.49119], [1.35889992400007, 9.508656486000064], [1.34159, 9.54626], [1.36606, 9.61139], [1.3693, 9.6615], [1.36311, 9.69847], [1.36455, 9.78833], [1.358723965000024, 9.913892621000059], [1.33888900300002, 9.900277138000035], [1.316110969000022, 9.896666527000036], [1.298056006000024, 9.888333321000061], [1.258056045000046, 9.858889580000039], [1.248888969000063, 9.847499847000051], [1.211110950000034, 9.771389008000028], [1.233332992000044, 9.757778168000073], [1.239444017000039, 9.749444962000041], [1.243888974000072, 9.734167099000047], [1.241667032000066, 9.71583271000003], [1.246389031000035, 9.706944466000039], [1.261111021000033, 9.694167137000022], [1.296388984000032, 9.676944733000028], [1.304721951000033, 9.665555], [1.305556059000025, 9.647500038000032], [1.297500014000036, 9.603889465000066], [1.269721985000047, 9.535000801000024], [1.361441016000072, 9.483250618000056]]]}}, {"type": "Feature", "id": "DOUFELGOU", "properties": {"map_key": "DOUFELGOU", "libelle": "Doufelgou"}, "geometry": {"type": "Polygon", "coordinates": [[[1.358723965000024, 9.913892621000059], [1.3552, 10.0], [1.17331096700002, 10.107654297000067], [1.174167037000075, 10.045000076000065], [1.171110988000066, 10.024999619000027], [1.154443979000064, 9.99083328200004], [1.138888955000027, 9.972499847000051], [1.12750005700002, 9.935000420000051], [1.110556006000024, 9.91749954200003], [1.086388946000056, 9.904166222000072], [1.083611012000063, 9.898888588000034], [1.081943989000024, 9.87277793900006], [1.073611021000033, 9.860555649000048], [1.056110978000049, 9.85000038100003], [1.03638899300006, 9.849444389000041], [1.014721990000055, 9.862500191000038], [1.002778053000043, 9.864444733000028], [0.986111104000031, 9.853889465000066], [0.952222228000039, 9.846666336000055], [0.945833325000024, 9.847222328000043], [0.935277820000067, 9.857500076000065], [0.929722190000064, 9.858889580000039], [0.908611119000057, 9.853611946000058], [0.889999986000021, 9.870278358000064], [0.883888900000045, 9.87083339700007], [0.850833416000057, 9.853889465000066], [0.838888884000028, 9.840555191000021], [0.836944401000039, 9.835832596000046], [0.839722216000041, 9.825277328000027], [0.846111119000057, 9.81750011400004], [0.859166682000023, 9.809721947000071], [0.860833287000048, 9.80472278600007], [0.858055592000028, 9.78694534300007], [0.861666679000052, 9.77055454300006], [0.856388927000069, 9.756111145000034], [0.85944438000007, 9.74583339700007], [0.868055582000068, 9.740000725000073], [0.871666729000026, 9.72999954200003], [0.85944438000007, 9.714721680000025], [0.861111224000069, 9.703332901000067], [0.870277822000048, 9.692777634000038], [0.878611088000071, 9.673611641000036], [0.894166589000065, 9.667778015000067], [0.902499974000023, 9.655833244000064], [0.91444438700006, 9.653888702000074], [0.916212618000031, 9.645280838000076], [0.952222228000039, 9.646666527000036], [0.996388912000043, 9.63888835900002], [1.034999967000033, 9.645000458000027], [1.058889031000035, 9.662499428000046], [1.084722042000067, 9.660277367000049], [1.096111059000066, 9.662221909000039], [1.108332992000044, 9.670556068000053], [1.131943941000031, 9.696389198000077], [1.156388998000068, 9.694999695000035], [1.168889046000061, 9.71916580200002], [1.189721942000062, 9.739722252000035], [1.210832953000022, 9.768610954000053], [1.243332982000027, 9.836944580000022], [1.258056045000046, 9.858889580000039], [1.298056006000024, 9.888333321000061], [1.316110969000022, 9.896666527000036], [1.33888900300002, 9.900277138000035], [1.358723965000024, 9.913892621000059]]]}}, {"type": "Feature", "id": "KERAN", "properties": {"map_key": "KERAN", "libelle": "K\u00e9ran"}, "geometry": {"type": "Polygon", "coordinates": [[[1.17331096700002, 10.107654297000067], [1.08803, 10.15884], [0.998343300000045, 10.22082940000007], [0.990277827000057, 10.199170113000037], [0.977222204000043, 10.18389034300003], [0.960555613000054, 10.180279732000031], [0.91638892900005, 10.188059807000059], [0.908611119000057, 10.182499886000073], [0.90472221400006, 10.17249965700006], [0.896944523000059, 10.165280342000074], [0.891388893000055, 10.166390419000038], [0.881111085000043, 10.176670074000072], [0.858333272000039, 10.179169673000047], [0.855000019000045, 10.182499886000073], [0.849444389000041, 10.181670189000045], [0.838333309000063, 10.17111015300003], [0.82277768900002, 10.165829659000053], [0.809166729000026, 10.152219772000024], [0.803611100000069, 10.153329849000045], [0.794444501000044, 10.171939850000058], [0.781944513000042, 10.179439545000037], [0.776388884000028, 10.180000305000021], [0.76749998300005, 10.174719810000056], [0.754166722000036, 10.182499886000073], [0.732777774000056, 10.168330193000031], [0.738888919000033, 10.16055011700007], [0.738055587000019, 10.153059959000075], [0.742777824000029, 10.145000458000027], [0.733888924000041, 10.123609543000043], [0.703888893000055, 10.083330154000066], [0.69055557300004, 10.052780151000036], [0.686944425000036, 10.033889771000077], [0.68777781700004, 9.990555763000032], [0.675833285000067, 9.974721909000039], [0.674444377000043, 9.956110954000053], [0.666666687000031, 9.942222595000032], [0.682777822000048, 9.887222290000068], [0.679293990000076, 9.875913620000063], [0.682222188000026, 9.851667404000068], [0.689444423000054, 9.845555305000062], [0.71722221400006, 9.84916591600006], [0.739166677000071, 9.844721794000066], [0.744444489000045, 9.846943855000063], [0.754722178000065, 9.856945038000049], [0.756111085000043, 9.86916637400003], [0.763888896000026, 9.875834465000025], [0.767222206000042, 9.891666331000067], [0.77805537200004, 9.887499856000034], [0.797777772000074, 9.887499809000076], [0.806111097000041, 9.875278473000037], [0.817222178000065, 9.87277793900006], [0.82999998300005, 9.873333931000047], [0.840833257000043, 9.883333144000062], [0.846388876000049, 9.88194465600003], [0.848888874000068, 9.878333092000048], [0.844166577000067, 9.861389160000044], [0.848611116000029, 9.851944923000076], [0.883888900000045, 9.87083339700007], [0.889999986000021, 9.870278358000064], [0.908611119000057, 9.853611946000058], [0.929722190000064, 9.858889580000039], [0.935277820000067, 9.857500076000065], [0.945833325000024, 9.847222328000043], [0.98111110900004, 9.852222443000073], [1.002778053000043, 9.864444733000028], [1.014721990000055, 9.862500191000038], [1.03638899300006, 9.849444389000041], [1.061388969000063, 9.852222443000073], [1.073611021000033, 9.860555649000048], [1.081943989000024, 9.87277793900006], [1.083611012000063, 9.898888588000034], [1.086388946000056, 9.904166222000072], [1.110556006000024, 9.91749954200003], [1.12750005700002, 9.935000420000051], [1.138888955000027, 9.972499847000051], [1.154443979000064, 9.99083328200004], [1.171110988000066, 10.024999619000027], [1.174167037000075, 10.045000076000065], [1.17331096700002, 10.107654297000067]]]}}, {"type": "Feature", "id": "KOZAH", "properties": {"map_key": "KOZAH", "libelle": "Kozah"}, "geometry": {"type": "Polygon", "coordinates": [[[1.40133570100005, 9.425408838000067], [1.390209128000038, 9.497299652000038], [1.362392705000047, 9.48597981000006], [1.361441016000072, 9.483250618000056], [1.269721985000047, 9.535000801000024], [1.297500014000036, 9.603889465000066], [1.305556059000025, 9.647500038000032], [1.304721951000033, 9.665555], [1.296388984000032, 9.676944733000028], [1.261111021000033, 9.694167137000022], [1.246389031000035, 9.706944466000039], [1.241667032000066, 9.71583271000003], [1.243888974000072, 9.734167099000047], [1.239444017000039, 9.749444962000041], [1.233332992000044, 9.757778168000073], [1.211110950000034, 9.771389008000028], [1.189721942000062, 9.739722252000035], [1.168889046000061, 9.71916580200002], [1.156388998000068, 9.694999695000035], [1.131943941000031, 9.696389198000077], [1.108332992000044, 9.670556068000053], [1.096111059000066, 9.662221909000039], [1.084722042000067, 9.660277367000049], [1.058889031000035, 9.662499428000046], [1.034999967000033, 9.645000458000027], [0.996388912000043, 9.63888835900002], [0.952222228000039, 9.646666527000036], [0.916212618000031, 9.645280838000076], [0.914722204000043, 9.632222176000028], [0.93083316000002, 9.620555953000064], [0.941388905000053, 9.625], [0.954721987000028, 9.625], [0.959444404000067, 9.623055458000067], [0.970833302000074, 9.607222557000057], [1.008056045000046, 9.59388828300007], [1.005833030000076, 9.520000458000027], [0.996388912000043, 9.499444962000041], [0.99555558000003, 9.468610764000061], [0.983888924000041, 9.453888893000055], [1.000833035000028, 9.42277813000004], [1.011389017000056, 9.412499428000046], [1.033889055000031, 9.405833244000064], [1.066388965000044, 9.413332939000043], [1.082499981000069, 9.408055305000062], [1.093888998000068, 9.409443855000063], [1.118610978000049, 9.404443741000023], [1.132222056000046, 9.411944389000041], [1.142222047000075, 9.43027782400003], [1.147778034000055, 9.431111336000072], [1.166944027000056, 9.419722557000057], [1.179167032000066, 9.417778015000067], [1.200278044000072, 9.422222137000063], [1.225833058000035, 9.438055992000045], [1.23611104500003, 9.441111565000028], [1.291666985000063, 9.429166794000025], [1.365556002000062, 9.446944237000025], [1.377221942000062, 9.444999695000035], [1.40133570100005, 9.425408838000067]]]}}, {"type": "Feature", "id": "GOLFE", "properties": {"map_key": "GOLFE", "libelle": "Golfe + Ago\u00e8-Nyiv\u00e9 (Grand Lom\u00e9)"}, "geometry": {"type": "Polygon", "coordinates": [[[1.262500048000049, 6.19750022900007], [1.28305602100005, 6.190278053000043], [1.301110983000058, 6.190834045000031], [1.343611002000046, 6.207221985000047], [1.392778039000063, 6.215278149000028], [1.398144960000025, 6.213856220000025], [1.395555019000028, 6.196945190000065], [1.397916025000029, 6.181196745000022], [1.297096200000055, 6.149540900000034], [1.284561500000052, 6.143491200000028], [1.285297600000035, 6.140891], [1.281333300000028, 6.141933700000038], [1.283047200000055, 6.139286600000048], [1.280576900000028, 6.141267], [1.285183600000039, 6.135221800000068], [1.262440500000025, 6.13398920000003], [1.199609310000028, 6.112424249000071], [1.200319576000027, 6.168551584000056], [1.105740163000064, 6.168159789000072], [1.114444017000039, 6.257778168000073], [1.118610978000049, 6.268888950000076], [1.12750005700002, 6.280278206000048], [1.141111016000025, 6.286110878000045], [1.165555, 6.282777786000054], [1.199445009000044, 6.271945], [1.21388900300002, 6.264166832000058], [1.231111050000038, 6.24777698500003], [1.25194394600004, 6.208333015000051], [1.262500048000049, 6.19750022900007]]]}}, {"type": "Feature", "id": "BAS-MONO", "properties": {"map_key": "BAS-MONO", "libelle": "Bas-Mono"}, "geometry": {"type": "Polygon", "coordinates": [[[1.769534777000047, 6.398222256000054], [1.76941, 6.41168], [1.77608, 6.41604], [1.75518, 6.43678], [1.7529, 6.45081], [1.74716, 6.45404], [1.750619698000037, 6.463920250000058], [1.74037, 6.47398], [1.73393, 6.47582], [1.73715, 6.48111], [1.734848431000046, 6.485470313000064], [1.73024, 6.48639], [1.72794, 6.49835], [1.717589877000023, 6.493290158000036], [1.712755890000039, 6.499497655000027], [1.70631, 6.49582], [1.69573, 6.50041], [1.69435, 6.50961], [1.70193, 6.51536], [1.70077, 6.53675], [1.69571, 6.54319], [1.69801, 6.54802], [1.69639, 6.55262], [1.68858, 6.55193], [1.683969615000024, 6.560429833000057], [1.67339, 6.55583], [1.66856, 6.55767], [1.66602, 6.56295], [1.673609300000066, 6.572849086000076], [1.67429, 6.5832], [1.66302, 6.58388], [1.656326413000045, 6.577295303000028], [1.650833011000032, 6.564167023000039], [1.645277977000035, 6.562777996000023], [1.576943994000032, 6.569444180000062], [1.537500024000053, 6.551389217000064], [1.562222004000034, 6.514999866000039], [1.597777963000055, 6.420278072000031], [1.607499957000073, 6.410277843000074], [1.621111035000069, 6.402500153000062], [1.625555992000045, 6.393610954000053], [1.62694394600004, 6.381667137000022], [1.623610973000041, 6.371110916000021], [1.599722028000031, 6.361667156000067], [1.622173241000041, 6.35378159000004], [1.642815953000024, 6.335719217000076], [1.647976631000063, 6.352749454000048], [1.666039004000027, 6.367199353000046], [1.697519140000054, 6.367199353000046], [1.716613649000067, 6.381133183000031], [1.74757771700007, 6.381649251000056], [1.753770530000054, 6.39403487800007], [1.769534777000047, 6.398222256000054]]]}}, {"type": "Feature", "id": "VO", "properties": {"map_key": "VO", "libelle": "Vo"}, "geometry": {"type": "Polygon", "coordinates": [[[1.537500024000053, 6.551389217000064], [1.50250005700002, 6.537777901000027], [1.462777972000026, 6.53416681300007], [1.446388960000036, 6.523056030000021], [1.42777800600004, 6.499722004000034], [1.39333295800003, 6.442222118000075], [1.383056045000046, 6.430832863000035], [1.366111040000021, 6.422500134000074], [1.386944056000061, 6.306388855000023], [1.40333294900006, 6.269443989000024], [1.405277967000075, 6.251389027000073], [1.428611040000021, 6.239165783000033], [1.453333020000059, 6.221110821000025], [1.473610997000037, 6.211944103000064], [1.496943951000048, 6.210556030000021], [1.524166942000022, 6.223888874000068], [1.585000038000032, 6.231111050000038], [1.583055973000057, 6.256111145000034], [1.585832953000022, 6.267499924000049], [1.603610992000029, 6.290555], [1.606111050000038, 6.30388879800006], [1.59555602100005, 6.344999790000031], [1.597221971000067, 6.357222080000042], [1.599722028000031, 6.361667156000067], [1.623610973000041, 6.371110916000021], [1.62694394600004, 6.381667137000022], [1.621111035000069, 6.402500153000062], [1.607499957000073, 6.410277843000074], [1.59555602100005, 6.42444419900005], [1.562222004000034, 6.514999866000039], [1.537500024000053, 6.551389217000064]]]}}, {"type": "Feature", "id": "YOTO", "properties": {"map_key": "YOTO", "libelle": "Yoto"}, "geometry": {"type": "Polygon", "coordinates": [[[1.663008903000048, 6.583870920000038], [1.65543, 6.57767], [1.65129, 6.57836], [1.64083, 6.58254], [1.6344, 6.59682], [1.61715, 6.59684], [1.6098, 6.60582], [1.60913, 6.61962], [1.60247, 6.62745], [1.602939819000028, 6.636876363000056], [1.611228733000075, 6.641923678000069], [1.602834899000072, 6.666285083000048], [1.58956822500005, 6.683880189000035], [1.57392, 6.68824], [1.59209, 6.70642], [1.59253, 6.7255], [1.60012, 6.7262], [1.6084, 6.73655], [1.61691, 6.74], [1.620357333000072, 6.74368714700006], [1.6169, 6.7492], [1.61874, 6.75334], [1.62609993500007, 6.76024007500007], [1.60838, 6.77127], [1.60791, 6.78162], [1.61274, 6.79243], [1.607209700000055, 6.80023998300004], [1.59893, 6.79978], [1.59662, 6.80644], [1.59846, 6.81219], [1.61479, 6.82508], [1.61317, 6.82876], [1.60397, 6.82714], [1.5996, 6.83013], [1.60142, 6.85289], [1.5945, 6.86898], [1.60668835000007, 6.883474651000029], [1.60416, 6.8906], [1.605068885000037, 6.905770465000046], [1.587612992000061, 6.91304455300002], [1.557500005000065, 6.900834084000053], [1.550555944000052, 6.893888950000076], [1.530277967000075, 6.857222080000042], [1.515555978000066, 6.844999790000031], [1.498056054000074, 6.836111069000026], [1.477221966000059, 6.830277920000071], [1.464722037000058, 6.831110954000053], [1.411110997000037, 6.84444522900003], [1.375833035000028, 6.833889008000028], [1.308055997000054, 6.786943913000073], [1.240712047000045, 6.72179794300007], [1.249722004000034, 6.713889122000069], [1.249722004000034, 6.707777977000035], [1.241389036000044, 6.69500017200005], [1.242221951000033, 6.69000005700002], [1.269999981000069, 6.67444419900005], [1.291944027000056, 6.667222023000022], [1.303333044000055, 6.658332825000059], [1.304721951000033, 6.640277863000051], [1.293889046000061, 6.607222080000042], [1.291666985000063, 6.581388950000076], [1.30277800600004, 6.552777767000066], [1.306388974000072, 6.518610954000053], [1.315278053000043, 6.50111103100005], [1.340278029000046, 6.477777958000047], [1.347777963000055, 6.44750022900007], [1.366111040000021, 6.422500134000074], [1.383056045000046, 6.430832863000035], [1.39333295800003, 6.442222118000075], [1.42777800600004, 6.499722004000034], [1.446388960000036, 6.523056030000021], [1.458333015000051, 6.53194522900003], [1.467777967000075, 6.535554886000057], [1.507778049000024, 6.53916597400007], [1.576943994000032, 6.569444180000062], [1.594722033000039, 6.569444180000062], [1.639443994000032, 6.562222004000034], [1.650833011000032, 6.564167023000039], [1.656326413000045, 6.577295303000028], [1.663008903000048, 6.583870920000038]]]}}, {"type": "Feature", "id": "AMOU", "properties": {"map_key": "AMOU", "libelle": "Amou"}, "geometry": {"type": "Polygon", "coordinates": [[[0.984974130000069, 7.219943501000046], [0.988888919000033, 7.226388931000031], [1.101389050000023, 7.304166794000025], [1.113610983000058, 7.32000017200005], [1.120000005000065, 7.376945019000061], [1.123056054000074, 7.389165878000028], [1.138610959000061, 7.416110992000029], [1.142778039000063, 7.439167023000039], [1.121667027000058, 7.479444981000029], [1.118610978000049, 7.50111103100005], [1.121667027000058, 7.558055878000062], [1.132500052000069, 7.583611012000063], [1.161666989000025, 7.626389027000073], [1.150555015000066, 7.666944981000029], [1.156388998000068, 7.716667175000055], [1.15333294900006, 7.750833988000068], [1.148056030000021, 7.771945], [1.143610954000053, 7.780834198000036], [1.133056045000046, 7.790832996000063], [1.103888988000051, 7.799167156000067], [1.091943979000064, 7.827221870000074], [1.087499976000061, 7.849999905000061], [1.070278049000024, 7.880834103000041], [1.060278058000051, 7.884722233000048], [1.053611040000021, 7.891665936000038], [1.050163031000068, 7.904068947000042], [0.998611212000071, 7.887499809000076], [0.956944406000048, 7.868332863000035], [0.949722171000076, 7.862222195000072], [0.926388919000033, 7.822778225000036], [0.908888876000049, 7.766110897000033], [0.902499974000023, 7.693889141000056], [0.903888881000057, 7.626945019000061], [0.90694439400005, 7.617499828000064], [0.919722319000073, 7.602221966000059], [0.928888917000052, 7.597221851000029], [0.944999993000067, 7.591111183000066], [0.989444375000062, 7.584167004000051], [0.996944487000064, 7.578332901000067], [0.999166727000045, 7.567222118000075], [0.990000010000074, 7.554999828000064], [0.949722171000076, 7.52944517100002], [0.890277684000068, 7.483889103000024], [0.843333304000055, 7.4375], [0.792777777000026, 7.403334141000073], [0.79138892900005, 7.391110897000033], [0.775277674000051, 7.365277767000066], [0.782222211000033, 7.333611012000063], [0.779999971000052, 7.302777767000066], [0.789722323000035, 7.291388988000051], [0.80805558000003, 7.288610935000065], [0.87944400300006, 7.294445038000049], [0.922500014000036, 7.293611050000038], [0.939999998000076, 7.289721966000059], [0.953611076000072, 7.28194522900003], [0.968888879000076, 7.263054848000024], [0.981666625000059, 7.23527813000004], [0.984974130000069, 7.219943501000046]]]}}, {"type": "Feature", "id": "WAWA", "properties": {"map_key": "WAWA", "libelle": "Wawa"}, "geometry": {"type": "Polygon", "coordinates": [[[0.902628666000055, 7.691314743000021], [0.827916419000076, 7.684894159000066], [0.807113710000067, 7.63288738600005], [0.794821200000058, 7.635724119000031], [0.77874637900004, 7.665982605000067], [0.756052514000032, 7.655581251000058], [0.713501518000044, 7.62626834200006], [0.693644386000074, 7.61964929800007], [0.670950521000066, 7.627213920000031], [0.655821278000076, 7.64801662900004], [0.650147812000057, 7.679220693000048], [0.650147812000057, 7.700968980000027], [0.632062418000032, 7.706493200000068], [0.623448806000056, 7.70493807500003], [0.611170788000038, 7.710791549000021], [0.594567736000045, 7.703248314000064], [0.589351131000058, 7.66724741400003], [0.588423141000021, 7.62734385400006], [0.560932790000038, 7.616064578000021], [0.55336610300003, 7.609640034000051], [0.538597228000071, 7.60802263100004], [0.535265984000034, 7.602478486000052], [0.521322342000076, 7.594531087000064], [0.530721213000049, 7.588867970000024], [0.525650663000022, 7.523169462000055], [0.520370558000025, 7.515532983000071], [0.528032421000034, 7.48376717900004], [0.520584710000037, 7.47227438300007], [0.524058722000063, 7.469514208000021], [0.519942254000057, 7.462899306000054], [0.521227163000049, 7.456498556000042], [0.52679510300004, 7.45963944500005], [0.532957906000036, 7.458663866000052], [0.533386209000071, 7.439366438000036], [0.539239683000062, 7.431894930000055], [0.538121337000064, 7.424613780000072], [0.55806122000007, 7.40291309600002], [0.573577599000032, 7.393428005000032], [0.59691781600003, 7.398796628000071], [0.601823509000042, 7.407038903000057], [0.605769412000029, 7.404221799000027], [0.618713679000052, 7.412645091000059], [0.625257197000053, 7.410598755000024], [0.630443963000062, 7.402053337000041], [0.634156380000036, 7.403698318000068], [0.644292885000027, 7.398725244000047], [0.648123817000055, 7.378333264000048], [0.645668847000024, 7.375403650000067], [0.646836275000055, 7.367475417000037], [0.690277815000059, 7.385278225000036], [0.701388896000026, 7.385832787000027], [0.718888879000076, 7.381389141000056], [0.749722183000074, 7.396389008000028], [0.773888886000066, 7.396389008000028], [0.784722328000043, 7.399444103000064], [0.802500010000074, 7.407777786000054], [0.838611126000046, 7.433888912000043], [0.890277684000068, 7.483889103000024], [0.949722171000076, 7.52944517100002], [0.990000010000074, 7.554999828000064], [0.999166727000045, 7.567222118000075], [0.996944487000064, 7.578332901000067], [0.989444375000062, 7.584167004000051], [0.944999993000067, 7.591111183000066], [0.919722319000073, 7.602221966000059], [0.910000026000034, 7.613055229000054], [0.903888881000057, 7.626945019000061], [0.902628666000055, 7.691314743000021]]]}}, {"type": "Feature", "id": "BLITTA", "properties": {"map_key": "BLITTA", "libelle": "Blitta"}, "geometry": {"type": "Polygon", "coordinates": [[[1.227571607000073, 8.373539925000046], [1.222730875000025, 8.373346329000071], [1.206243277000056, 8.384338379000042], [1.16018271400003, 8.393236160000072], [1.131133199000033, 8.360522270000047], [1.045162201000039, 8.376225471000055], [1.005251765000025, 8.389310837000039], [0.953695357000072, 8.370467186000042], [0.781491697000035, 8.40422725700006], [0.751166284000021, 8.374000549000073], [0.732192516000055, 8.366148949000035], [0.709935119000022, 8.38666756300006], [0.710440608000056, 8.357177438000065], [0.720696084000053, 8.355154896000045], [0.731070534000025, 8.34627950600003], [0.733378612000024, 8.31855878600004], [0.730927766000036, 8.31615553100005], [0.731141918000048, 8.290243201000067], [0.721600721000073, 8.282658255000058], [0.684433100000035, 8.282914461000075], [0.67800855400003, 8.278988350000077], [0.672464411000021, 8.264473639000073], [0.660495721000075, 8.259405387000072], [0.637795664000066, 8.258953289000033], [0.637319773000058, 8.247270136000054], [0.624018585000044, 8.23825197900004], [0.625565235000067, 8.229638330000057], [0.618712388000063, 8.216099197000062], [0.587684216000071, 8.207890057000043], [0.587065557000074, 8.197039715000074], [0.590396802000043, 8.191566955000042], [0.601294733000032, 8.181263889000036], [0.611446364000074, 8.183690806000072], [0.61057463100002, 8.177290189000075], [0.606029861000025, 8.17257885600003], [0.605815709000069, 8.144786752000073], [0.59101546200003, 8.138314618000038], [0.589730553000038, 8.104811808000022], [0.584138820000021, 8.103217569000037], [0.583450068000047, 8.095050700000058], [0.595347373000038, 8.045296171000075], [0.593848312000034, 8.036087657000053], [0.598987947000069, 8.024428299000022], [0.59451456100004, 7.992115219000027], [0.597940985000037, 7.987784600000055], [0.596156390000033, 7.976696312000058], [0.60055839100005, 7.954710093000074], [0.605436286000042, 7.952235453000071], [0.609528960000034, 7.944549794000068], [0.609100656000066, 7.934603647000074], [0.615287255000055, 7.918899205000059], [0.613859579000064, 7.909476540000071], [0.61729968800006, 7.896689722000076], [0.68138891500007, 7.900556087000041], [0.701388896000026, 7.923055172000034], [0.723611116000029, 7.934443951000048], [0.753888905000053, 7.930554869000048], [0.80805558000003, 7.942222118000075], [0.824999988000059, 7.950832844000047], [0.834166586000038, 7.969721794000066], [0.84027767200007, 7.969721794000066], [0.854166687000031, 7.961944103000064], [0.87944400300006, 7.958889008000028], [0.929444492000073, 7.967778206000048], [0.962777793000043, 7.980556011000033], [0.991111100000069, 7.971110821000025], [1.029167056000063, 7.964167118000034], [1.058889031000035, 7.950277805000042], [1.071388960000036, 7.948888779000072], [1.191388965000044, 7.970277786000054], [1.20166695100005, 7.973332882000022], [1.238055944000052, 7.998055935000025], [1.245000005000065, 8.005555153000046], [1.235833049000064, 8.010833740000066], [1.232777953000038, 8.020277977000035], [1.25111103100005, 8.057222366000076], [1.25, 8.087777138000035], [1.255833030000076, 8.110000610000043], [1.256943941000031, 8.136111259000074], [1.263610959000061, 8.15666675600005], [1.264443994000032, 8.182778358000064], [1.260277987000052, 8.199166298000023], [1.251667023000039, 8.204166412000063], [1.243332982000027, 8.216943741000023], [1.245278001000031, 8.244999886000073], [1.240833044000055, 8.255277634000038], [1.238888979000023, 8.27972221400006], [1.231389046000061, 8.292222977000051], [1.229166985000063, 8.304166794000025], [1.229166985000063, 8.346388817000047], [1.238610983000058, 8.365278244000024], [1.236389041000052, 8.370555878000062], [1.231389046000061, 8.369722366000076], [1.227571607000073, 8.373539925000046]]]}}, {"type": "Feature", "id": "SOTOUBOUA", "properties": {"map_key": "SOTOUBOUA", "libelle": "Sotouboua"}, "geometry": {"type": "Polygon", "coordinates": [[[1.258332968000047, 8.676944733000028], [1.240000010000074, 8.68166732800006], [1.215278029000046, 8.691389084000036], [1.208611012000063, 8.699166298000023], [1.200278044000072, 8.724444389000041], [1.191110969000022, 8.735833168000056], [1.18194401300002, 8.74083328200004], [1.152500033000024, 8.740278244000024], [1.126389027000073, 8.73333358800005], [1.11944401300002, 8.734167099000047], [1.096667051000054, 8.747222900000054], [1.065554976000044, 8.74583339700007], [1.044999957000073, 8.76694393200006], [1.027222037000058, 8.777221680000025], [1.015833020000059, 8.793055534000075], [1.000555992000045, 8.800277710000046], [0.982222199000034, 8.816944122000052], [0.973888874000068, 8.841388702000074], [0.968333304000055, 8.88361072500004], [0.959444404000067, 8.89777755700004], [0.946388900000045, 8.906944275000058], [0.921666682000023, 8.910277367000049], [0.910833299000046, 8.914166451000028], [0.903888881000057, 8.920556068000053], [0.893333316000053, 8.950277328000027], [0.887222171000076, 8.981944084000077], [0.883333325000024, 8.99222278600007], [0.873610973000041, 9.004166603000044], [0.860277772000074, 9.00500011400004], [0.845000029000062, 9.012222290000068], [0.818611085000043, 9.01388931100007], [0.793333411000049, 9.024999619000027], [0.785555601000056, 9.025277138000035], [0.780277789000024, 9.046667099000047], [0.773611009000035, 9.053611755000077], [0.767777681000041, 9.053611755000077], [0.754999995000048, 9.045278549000045], [0.748611212000071, 9.045278549000045], [0.734722237000028, 9.052499716000057], [0.72638887200003, 9.046389580000039], [0.710833311000044, 9.01361084000007], [0.694239928000059, 9.01031462100002], [0.707996424000044, 8.981407753000042], [0.715396714000065, 8.903704703000074], [0.743147803000056, 8.872253469000043], [0.735747513000035, 8.864853178000033], [0.720946932000061, 8.86115303300005], [0.700596133000033, 8.846352452000076], [0.706146351000029, 8.720547515000021], [0.752398166000035, 8.690946354000062], [0.778299183000058, 8.657645047000074], [0.78199932800004, 8.63914432100006], [0.754248239000049, 8.61509337700005], [0.720946932000061, 8.574391779000052], [0.687645625000073, 8.552190908000057], [0.630293374000075, 8.537390327000026], [0.611395247000075, 8.51351900800006], [0.617594041000075, 8.513960120000036], [0.627611571000045, 8.508463566000046], [0.623733049000066, 8.503109778000066], [0.627278447000037, 8.498208089000059], [0.637890842000047, 8.499064695000072], [0.643768111000043, 8.494900638000047], [0.642673560000048, 8.479481731000021], [0.654142562000061, 8.460327070000062], [0.65038301200002, 8.456067835000056], [0.650168862000044, 8.427823634000049], [0.663351076000026, 8.42561073500002], [0.678270295000061, 8.416188069000043], [0.685170733000064, 8.417377800000054], [0.692713623000031, 8.406765404000055], [0.692975364000063, 8.40098331400003], [0.705729274000021, 8.401007109000034], [0.698091206000072, 8.39572470500002], [0.707775612000034, 8.39175100500006], [0.732192516000055, 8.366148949000035], [0.751166284000021, 8.374000549000073], [0.781491697000035, 8.40422725700006], [0.953695357000072, 8.370467186000042], [1.005251765000025, 8.389310837000039], [1.045162201000039, 8.376225471000055], [1.131133199000033, 8.360522270000047], [1.16018271400003, 8.393236160000072], [1.206243277000056, 8.384338379000042], [1.222730875000025, 8.373346329000071], [1.227571607000073, 8.373539925000046], [1.232777953000038, 8.388055801000064], [1.222221971000067, 8.412221909000039], [1.221111059000066, 8.42472267200003], [1.226389050000023, 8.44055557300004], [1.227221966000059, 8.460000038000032], [1.238332987000035, 8.482777596000062], [1.226943970000036, 8.511666298000023], [1.227777958000047, 8.518610954000053], [1.235000014000036, 8.53166675600005], [1.253610969000022, 8.536389351000025], [1.262222052000027, 8.542222977000051], [1.268610954000053, 8.549166679000052], [1.269166946000041, 8.555833817000064], [1.263888955000027, 8.558055878000062], [1.25250005700002, 8.555833817000064], [1.242499948000045, 8.560555458000067], [1.251389027000073, 8.58722209900003], [1.248332977000075, 8.621944427000074], [1.260555983000074, 8.671667099000047], [1.258332968000047, 8.676944733000028]]]}}, {"type": "Feature", "id": "BASSAR", "properties": {"map_key": "BASSAR", "libelle": "Bassar"}, "geometry": {"type": "Polygon", "coordinates": [[[0.995277822000048, 9.201666832000058], [1.025555015000066, 9.21916580200002], [1.033611059000066, 9.240278244000024], [1.03305602100005, 9.266111374000047], [1.029167056000063, 9.280277252000076], [1.023056030000021, 9.288611412000023], [1.00666701800003, 9.29388904600006], [0.984722316000045, 9.320555687000024], [0.961388886000066, 9.332221985000047], [0.956944406000048, 9.341943741000023], [0.954722226000058, 9.37111091600002], [0.956944406000048, 9.384166718000074], [0.971944392000069, 9.403888702000074], [0.983888924000041, 9.453888893000055], [0.99555558000003, 9.468610764000061], [0.996388912000043, 9.499444962000041], [1.005833030000076, 9.520000458000027], [1.008056045000046, 9.59388828300007], [0.970833302000074, 9.607222557000057], [0.959444404000067, 9.623055458000067], [0.954721987000028, 9.625], [0.941388905000053, 9.625], [0.93083316000002, 9.620555953000064], [0.922222316000045, 9.625834465000025], [0.914722204000043, 9.632222176000028], [0.916666687000031, 9.648611069000026], [0.913539524000043, 9.654069607000054], [0.887988806000067, 9.629270554000072], [0.859789014000057, 9.612149239000075], [0.855760515000043, 9.598049164000031], [0.832596362000061, 9.61617755900005], [0.815475047000064, 9.577906609000024], [0.78324675600004, 9.570856094000021], [0.750011265000069, 9.571863174000043], [0.688575983000021, 9.552727699000059], [0.671454668000024, 9.542656898000075], [0.684547424000073, 9.48424243900007], [0.654333413000074, 9.451006889000041], [0.632176399000059, 9.435899734000031], [0.60397660700005, 9.42683601400006], [0.562348658000076, 9.405350767000073], [0.564501525000026, 9.403691692000052], [0.55065980400002, 9.352720109000074], [0.544449411000073, 9.343749541000022], [0.549255921000054, 9.322096447000035], [0.555252164000024, 9.317670649000036], [0.554633503000048, 9.307462762000057], [0.552158865000024, 9.301752055000065], [0.537596564000069, 9.30325111600007], [0.526651043000072, 9.284001277000073], [0.512326687000041, 9.269891073000053], [0.503260942000054, 9.252187884000023], [0.530934073000026, 9.20657361700006], [0.519512659000043, 9.191178505000039], [0.509328567000068, 9.163029481000024], [0.503308530000027, 9.159745825000073], [0.501428756000053, 9.153511638000055], [0.490887745000066, 9.155962482000064], [0.474564643000065, 9.14449348100004], [0.484629763000044, 9.113322542000049], [0.483011729000054, 9.101615594000066], [0.48096539300002, 9.098641268000051], [0.472542100000055, 9.097808456000053], [0.465824442000041, 9.091242430000023], [0.459145736000039, 9.067279972000051], [0.463357381000037, 9.06678028600004], [0.463167025000075, 9.05538266800005], [0.455814490000023, 9.055763381000077], [0.455029268000033, 9.035561758000028], [0.460423908000053, 9.033956412000066], [0.460787564000043, 9.027471590000061], [0.468116303000045, 9.01876276300004], [0.466463477000048, 9.006237658000032], [0.49276751900004, 8.95418419300006], [0.497930948000032, 8.954231782000022], [0.506211474000054, 8.94814036200006], [0.511446287000069, 8.936790333000033], [0.507091873000036, 8.918920581000066], [0.509209593000037, 8.902549890000046], [0.518632260000061, 8.892746511000041], [0.524223993000021, 8.880230546000064], [0.518156367000074, 8.869546766000042], [0.519988553000076, 8.856245580000063], [0.516371771000024, 8.851558042000022], [0.509804460000055, 8.853176075000022], [0.506901517000074, 8.847251217000064], [0.501634406000051, 8.845565005000026], [0.514166713000066, 8.843054771000027], [0.535833418000038, 8.848888397000053], [0.554722190000064, 8.872500420000051], [0.573888898000064, 8.870278358000064], [0.58472222100005, 8.873333931000047], [0.591944396000031, 8.88000011400004], [0.592499971000052, 8.886111259000074], [0.591111124000065, 8.89194393200006], [0.578611076000072, 8.899444580000022], [0.578611076000072, 8.90638828300007], [0.583888888000047, 8.915555], [0.612777829000038, 8.92833328200004], [0.630833328000051, 8.945555687000024], [0.636944413000037, 8.97416591600006], [0.643333316000053, 8.981666565000069], [0.671666682000023, 8.98333358800005], [0.68583327500005, 9.003889084000036], [0.693611085000043, 9.01000022900007], [0.710833311000044, 9.01361084000007], [0.72638887200003, 9.046389580000039], [0.734722237000028, 9.052499716000057], [0.748611212000071, 9.045278549000045], [0.754999995000048, 9.045278549000045], [0.767777681000041, 9.053611755000077], [0.773611009000035, 9.053611755000077], [0.780277789000024, 9.046667099000047], [0.785555601000056, 9.025277138000035], [0.793333411000049, 9.024999619000027], [0.818611085000043, 9.01388931100007], [0.845000029000062, 9.012222290000068], [0.860277772000074, 9.00500011400004], [0.885555625000052, 9.00500011400004], [0.916666687000031, 9.012499809000076], [0.941388905000053, 9.014721870000074], [0.95972222100005, 9.022221565000052], [0.977222204000043, 9.046667099000047], [0.996111214000052, 9.056111336000072], [1.00250005700002, 9.06389045700007], [1.00111103100005, 9.074999809000076], [0.987222314000064, 9.106945038000049], [0.985833287000048, 9.174445152000033], [0.995277822000048, 9.201666832000058]]]}}, {"type": "Feature", "id": "DANKPEN", "properties": {"map_key": "DANKPEN", "libelle": "Dankpen"}, "geometry": {"type": "Polygon", "coordinates": [[[0.848611116000029, 9.851944923000076], [0.844166577000067, 9.861389160000044], [0.848888874000068, 9.878333092000048], [0.846388876000049, 9.88194465600003], [0.840833257000043, 9.883333144000062], [0.82999998300005, 9.873333931000047], [0.817222178000065, 9.87277793900006], [0.806111097000041, 9.875278473000037], [0.797777772000074, 9.887499809000076], [0.77805537200004, 9.887499856000034], [0.767222206000042, 9.891666331000067], [0.763888896000026, 9.875834465000025], [0.756111085000043, 9.86916637400003], [0.754722178000065, 9.856945038000049], [0.739166677000071, 9.844721794000066], [0.723610997000037, 9.84916591600006], [0.689444423000054, 9.845555305000062], [0.682222188000026, 9.851667404000068], [0.677222311000037, 9.880833626000026], [0.666111112000067, 9.883333206000032], [0.655277729000034, 9.873611450000055], [0.638333321000061, 9.891388893000055], [0.631944461000046, 9.891943892000029], [0.626110972000049, 9.883610718000057], [0.594444513000042, 9.883055687000024], [0.582777798000052, 9.880833626000026], [0.564166725000064, 9.871666908000066], [0.55805558000003, 9.873055458000067], [0.549444497000025, 9.878889084000036], [0.538611114000048, 9.895277977000035], [0.523888886000066, 9.901944160000028], [0.517777681000041, 9.909443855000063], [0.51527780300006, 9.925000191000038], [0.524444401000039, 9.937221527000077], [0.514999986000021, 9.941666603000044], [0.491111100000069, 9.942222595000032], [0.483332992000044, 9.94805526700003], [0.47694438700006, 9.94805526700003], [0.468055155000059, 9.942777706000072], [0.457222193000064, 9.946666718000074], [0.446388900000045, 9.956944466000039], [0.427500010000074, 9.957500458000027], [0.42055550200007, 9.964721680000025], [0.419722199000034, 9.970277786000054], [0.422500014000036, 9.99416732800006], [0.40760872900006, 10.019869476000054], [0.401772982000068, 10.018816825000044], [0.392159960000072, 10.024527531000047], [0.373909495000021, 10.025741057000062], [0.364796159000036, 10.031951450000065], [0.36084625500007, 10.030785514000058], [0.36310674300006, 10.010750452000025], [0.357015323000041, 9.995997794000061], [0.359347193000076, 9.98355321400004], [0.367342183000062, 9.965374132000022], [0.385545060000027, 9.947837505000052], [0.386853762000044, 9.936963368000022], [0.37474230600003, 9.930634002000033], [0.361964601000068, 9.928492487000028], [0.354968986000074, 9.91883187600007], [0.35139979500002, 9.89670288900004], [0.357729160000019, 9.845473094000056], [0.351613946000043, 9.825057319000052], [0.342548200000067, 9.814492512000072], [0.341215701000067, 9.80311868900003], [0.331959599000072, 9.793696024000042], [0.336076066000032, 9.776206985000044], [0.327510006000068, 9.770520074000046], [0.330175002000033, 9.755172551000044], [0.32049059700006, 9.724596477000034], [0.324892599000066, 9.720242064000047], [0.339216954000051, 9.719004744000074], [0.345236991000036, 9.715150017000042], [0.352470552000057, 9.69121264000006], [0.351899482000022, 9.674175699000045], [0.362535671000046, 9.672057979000044], [0.369959590000065, 9.650357295000049], [0.382796765000023, 9.640309693000063], [0.374011013000029, 9.606413167000028], [0.384065811000028, 9.58608970900002], [0.373501003000058, 9.576159425000071], [0.358304179000072, 9.56921139900004], [0.34973812100003, 9.56892586400005], [0.337745638000058, 9.574541392000071], [0.322548814000072, 9.571432229000038], [0.290790940000022, 9.573145441000065], [0.267916390000039, 9.563754502000052], [0.251704329000063, 9.572098478000044], [0.242884461000074, 9.571717765000074], [0.238188991000072, 9.541704830000072], [0.245517731000064, 9.522478786000022], [0.257224679000046, 9.518513018000021], [0.283589106000022, 9.524096819000022], [0.294724982000048, 9.522732595000036], [0.310207343000059, 9.513881], [0.314363467000021, 9.505314941000051], [0.311349483000072, 9.500238757000034], [0.287999040000045, 9.486120622000044], [0.278893636000021, 9.486882050000077], [0.270232398000076, 9.477110397000047], [0.254052064000064, 9.477142123000021], [0.23254173700002, 9.485961992000057], [0.229718110000022, 9.481012713000041], [0.233556974000066, 9.459216850000075], [0.247230943000034, 9.445114578000073], [0.249063128000046, 9.436524724000037], [0.260294183000042, 9.43350280900006], [0.26514828400002, 9.428053843000043], [0.285373701000026, 9.428981833000023], [0.310191479000025, 9.442330609000066], [0.337412512000071, 9.450444571000048], [0.344550896000044, 9.467790841000067], [0.350356781000073, 9.473120834000042], [0.345098171000075, 9.485660593000034], [0.359969802000023, 9.498628655000061], [0.386239051000075, 9.490681256000073], [0.407868351000047, 9.493060717000048], [0.413721825000039, 9.499485261000075], [0.43658844600003, 9.494988080000041], [0.448319188000028, 9.497938612000041], [0.456028642000035, 9.497248568000032], [0.46366671100003, 9.489348758000062], [0.475349865000055, 9.488396973000022], [0.479228386000045, 9.484423273000061], [0.48446320000005, 9.48751657300005], [0.48796100800007, 9.486136485000031], [0.500429383000039, 9.473715699000024], [0.504069958000059, 9.46500687200006], [0.493314794000071, 9.449254840000037], [0.498763761000021, 9.436953027000072], [0.51798980500007, 9.439237310000067], [0.524152608000065, 9.43014776900003], [0.532504517000064, 9.429433931000062], [0.542736198000057, 9.422509699000045], [0.551040518000036, 9.422723851000057], [0.552896497000063, 9.412634936000075], [0.562348658000076, 9.405350767000073], [0.60397660700005, 9.42683601400006], [0.632176399000059, 9.435899734000031], [0.654333413000074, 9.451006889000041], [0.684547424000073, 9.48424243900007], [0.671454668000024, 9.542656898000075], [0.688575983000021, 9.552727699000059], [0.750011265000069, 9.571863174000043], [0.78324675600004, 9.570856094000021], [0.815475047000064, 9.577906609000024], [0.832596362000061, 9.61617755900005], [0.855760515000043, 9.598049164000031], [0.859789014000057, 9.612149239000075], [0.887988806000067, 9.629270554000072], [0.913539524000043, 9.654069607000054], [0.902499974000023, 9.655833244000064], [0.894166589000065, 9.667778015000067], [0.878611088000071, 9.673611641000036], [0.870277822000048, 9.692777634000038], [0.861111224000069, 9.703332901000067], [0.85944438000007, 9.714721680000025], [0.871666729000026, 9.72999954200003], [0.868055582000068, 9.740000725000073], [0.85944438000007, 9.74583339700007], [0.856388927000069, 9.756111145000034], [0.861666679000052, 9.77055454300006], [0.858055592000028, 9.78694534300007], [0.860833287000048, 9.80472278600007], [0.859166682000023, 9.809721947000071], [0.846111119000057, 9.81750011400004], [0.839722216000041, 9.825277328000027], [0.836944401000039, 9.835832596000046], [0.848611116000029, 9.851944923000076]]]}}, {"type": "Feature", "id": "AVE", "properties": {"map_key": "AVE", "libelle": "Av\u00e9"}, "geometry": {"type": "Polygon", "coordinates": [[[1.11501133400003, 6.259479523000039], [1.087244034000037, 6.257707119000031], [1.029820681000047, 6.323143005000077], [1.037833214000045, 6.361202717000026], [1.070551157000068, 6.385240555000053], [1.067212582000025, 6.445334435000063], [1.016466379000065, 6.505428791000043], [0.931332886000064, 6.618940353000028], [0.924989581000034, 6.649654865000059], [0.910967588000062, 6.677031517000046], [0.898915172000045, 6.685209751000059], [0.88277781000005, 6.641388893000055], [0.845833302000074, 6.609167099000047], [0.82027781000005, 6.572222233000048], [0.808888912000043, 6.563333988000068], [0.761111022000023, 6.53833293200006], [0.733055234000062, 6.534166837000043], [0.717251090000047, 6.536672829000054], [0.712334997000028, 6.528427931000067], [0.719130863000032, 6.501575780000053], [0.727149647000033, 6.488322182000047], [0.744304701000033, 6.481350683000073], [0.748160287000076, 6.44292206700004], [0.78133714300003, 6.432328385000062], [0.788142401000073, 6.408985873000063], [0.828260112000066, 6.400110484000038], [0.856811139000058, 6.383598316000075], [0.88455816000004, 6.354924520000054], [0.893870291000042, 6.333245563000048], [1.005305710000073, 6.33270589600005], [1.009434442000043, 6.325124415000062], [1.006390526000075, 6.309467562000066], [1.008532041000024, 6.291930935000039], [1.016598414000043, 6.284649784000067], [1.024307868000051, 6.254168889000027], [1.038870169000063, 6.235751862000029], [1.054931530000033, 6.231397448000052], [1.065829462000067, 6.219048046000069], [1.068994145000033, 6.207388687000048], [1.083416658000033, 6.187682450000068], [1.085439200000053, 6.168075692000059], [1.105740163000064, 6.168159789000072], [1.11501133400003, 6.259479523000039]]]}}, {"type": "Feature", "id": "ZIO", "properties": {"map_key": "ZIO", "libelle": "Zio"}, "geometry": {"type": "Polygon", "coordinates": [[[1.25912466475635, 6.200151369934127], [1.28305602100005, 6.190278053000043], [1.301110983000058, 6.190834045000031], [1.343611002000046, 6.207221985000047], [1.392778039000063, 6.215278149000028], [1.398144960000025, 6.213856220000025], [1.405555010000057, 6.247221947000071], [1.40333294900006, 6.269443989000024], [1.386944056000061, 6.306388855000023], [1.367221951000033, 6.419722080000042], [1.347777963000055, 6.44750022900007], [1.340278029000046, 6.477777958000047], [1.315278053000043, 6.50111103100005], [1.306388974000072, 6.518610954000053], [1.30277800600004, 6.552777767000066], [1.291666985000063, 6.581388950000076], [1.293889046000061, 6.607222080000042], [1.304721951000033, 6.640277863000051], [1.303333044000055, 6.658332825000059], [1.291944027000056, 6.667222023000022], [1.245833039000047, 6.686944008000069], [1.241389036000044, 6.69500017200005], [1.249722004000034, 6.707777977000035], [1.246667027000058, 6.717778206000048], [1.233055949000061, 6.72555494300002], [1.19611096400007, 6.738611221000042], [1.180832982000027, 6.763888836000035], [1.156111002000046, 6.775556087000041], [1.149166942000022, 6.788610935000065], [1.120000005000065, 6.793334007000055], [1.117777944000068, 6.79777813000004], [1.125, 6.805277824000029], [1.121943951000048, 6.808888912000043], [0.892222226000058, 6.825554848000024], [0.893611073000045, 6.78916597400007], [0.901666582000075, 6.746944904000031], [0.902222216000041, 6.713889122000069], [0.898915172000045, 6.685209751000059], [0.910967588000062, 6.677031517000046], [0.918312430000071, 6.665012360000048], [0.924989581000034, 6.649654865000059], [0.931332886000064, 6.618940353000028], [1.016466379000065, 6.505428791000043], [1.067212582000025, 6.445334435000063], [1.070551157000068, 6.385240555000053], [1.037833214000045, 6.361202717000026], [1.029820681000047, 6.323143005000077], [1.087244034000037, 6.257707119000031], [1.11501133400003, 6.259479523000039], [1.124444008000069, 6.277778149000028], [1.141111016000025, 6.286110878000045], [1.17222201800007, 6.281110764000061], [1.20416700800007, 6.269443989000024], [1.231111050000038, 6.24777698500003], [1.25194394600004, 6.208333015000051], [1.25912466475635, 6.200151369934127]]]}}, {"type": "Feature", "id": "AGOU", "properties": {"map_key": "AGOU", "libelle": "Agou"}, "geometry": {"type": "Polygon", "coordinates": [[[0.898915172000045, 6.685209751000059], [0.902499974000023, 6.728888988000051], [0.901111126000046, 6.75250005700002], [0.893611073000045, 6.78916597400007], [0.890169203000028, 6.920064926000066], [0.863407671000061, 6.912036896000075], [0.846473515000071, 6.901150227000073], [0.818653047000055, 6.916874886000073], [0.794461310000031, 6.948324203000027], [0.777527153000051, 6.983402252000076], [0.769060016000026, 6.993078709000031], [0.750916243000063, 6.994288445000052], [0.740029991000029, 6.988240719000032], [0.741239607000068, 6.949533939000048], [0.736401260000036, 6.925342083000032], [0.720676601000036, 6.901150227000073], [0.634796083000026, 6.817688942000075], [0.632376909000072, 6.80438375500006], [0.644472778000022, 6.789868355000067], [0.64568233500006, 6.781401634000076], [0.644472778000022, 6.753581047000068], [0.639516100000037, 6.744994577000057], [0.65095930800004, 6.737166210000055], [0.642155302000049, 6.72053377800006], [0.648460874000023, 6.710992139000041], [0.643202264000024, 6.695739794000076], [0.644415790000039, 6.678131783000026], [0.641155927000057, 6.66975608100006], [0.643749541000034, 6.659595782000054], [0.638324370000021, 6.653004676000023], [0.638110217000076, 6.63530148600006], [0.647152170000027, 6.627877568000031], [0.656598630000076, 6.608651523000049], [0.663903575000063, 6.606795544000022], [0.669685665000031, 6.609103621000031], [0.672588607000023, 6.614647765000029], [0.690862868000067, 6.598800555000025], [0.689363807000063, 6.596468683000069], [0.684352776000026, 6.597736366000049], [0.68781715700004, 6.592447394000033], [0.710303064000072, 6.586760482000045], [0.727078264000056, 6.591733556000065], [0.740974315000074, 6.582667810000032], [0.744097455000031, 6.558707612000035], [0.718171063000057, 6.537622163000037], [0.733055234000062, 6.534166837000043], [0.761111022000023, 6.53833293200006], [0.771111071000064, 6.541388988000051], [0.82027781000005, 6.572222233000048], [0.845833302000074, 6.609167099000047], [0.88277781000005, 6.641388893000055], [0.898915172000045, 6.685209751000059]]]}}, {"type": "Feature", "id": "DANYI", "properties": {"map_key": "DANYI", "libelle": "Danyi"}, "geometry": {"type": "Polygon", "coordinates": [[[0.792777777000026, 7.403334141000073], [0.773888886000066, 7.396389008000028], [0.749722183000074, 7.396389008000028], [0.718888879000076, 7.381389141000056], [0.701388896000026, 7.385832787000027], [0.690277815000059, 7.385278225000036], [0.646836275000055, 7.367475417000037], [0.658831391000035, 7.318180491000021], [0.657165769000073, 7.308781620000047], [0.650455689000069, 7.290221824000071], [0.645458820000044, 7.29036459200006], [0.637816678000036, 7.226396065000074], [0.632177355000067, 7.218591433000029], [0.629298207000033, 7.196153116000062], [0.62432513300007, 7.184422374000064], [0.616687064000075, 7.183423], [0.614664523000044, 7.176022876000047], [0.617258135000043, 7.162007851000055], [0.613665149000042, 7.156582680000042], [0.606098462000034, 7.159223882000049], [0.606050873000072, 7.142186942000023], [0.597342047000041, 7.134287131000065], [0.596395021000035, 7.120297086000051], [0.592345179000063, 7.111134976000073], [0.730351865000046, 7.175774574000059], [0.755374372000063, 7.224985600000025], [0.764549315000068, 7.279201031000071], [0.79086099400007, 7.290969261000043], [0.779999971000052, 7.302777767000066], [0.782222211000033, 7.333611012000063], [0.775277674000051, 7.365277767000066], [0.79138892900005, 7.391110897000033], [0.792777777000026, 7.403334141000073]]]}}, {"type": "Feature", "id": "EST-MONO", "properties": {"map_key": "EST-MONO", "libelle": "Est-Mono"}, "geometry": {"type": "Polygon", "coordinates": [[[1.227571607000073, 8.373539925000046], [1.231389046000061, 8.369722366000076], [1.236389041000052, 8.370555878000062], [1.238610983000058, 8.365278244000024], [1.229166985000063, 8.346388817000047], [1.229166985000063, 8.304166794000025], [1.231389046000061, 8.292222977000051], [1.238888979000023, 8.27972221400006], [1.240833044000055, 8.255277634000038], [1.245278001000031, 8.244999886000073], [1.243332982000027, 8.216943741000023], [1.251667023000039, 8.204166412000063], [1.260277987000052, 8.199166298000023], [1.264443994000032, 8.182778358000064], [1.263610959000061, 8.15666675600005], [1.256943941000031, 8.136111259000074], [1.255833030000076, 8.110000610000043], [1.25, 8.087777138000035], [1.25111103100005, 8.057222366000076], [1.232777953000038, 8.020277977000035], [1.235833049000064, 8.010833740000066], [1.245000005000065, 8.005555153000046], [1.20166695100005, 7.973332882000022], [1.164846539000052, 7.965635777000045], [1.170187235000071, 7.935068607000062], [1.203566313000067, 7.917711735000069], [1.272994995000033, 7.915040970000064], [1.299698234000061, 7.919046879000064], [1.315720201000033, 7.916376114000059], [1.33841800700003, 7.87365102800004], [1.349099398000021, 7.861634731000038], [1.36779165300004, 7.848282814000072], [1.450571895000053, 7.816238880000071], [1.48929178700007, 7.814903736000076], [1.495967507000046, 7.821579456000052], [1.49196207500006, 7.857629299000052], [1.498637915000074, 7.889673233000053], [1.511989594000056, 7.916376114000059], [1.570736885000031, 7.940409184000032], [1.58942914000005, 7.940409184000032], [1.633683875000031, 7.93155838000007], [1.63626, 7.98842], [1.633469950000062, 8.318990659000065], [1.63177, 8.34125], [1.62428, 8.35315], [1.621503435000022, 8.365959170000053], [1.227571607000073, 8.373539925000046]]]}}, {"type": "Feature", "id": "HAHO", "properties": {"map_key": "HAHO", "libelle": "Haho"}, "geometry": {"type": "Polygon", "coordinates": [[[1.587612992000061, 6.91304455300002], [1.5779, 6.923], [1.57411, 6.94711], [1.55918, 6.97219], [1.55783, 6.99749], [1.553668261000041, 7.011003494000022], [1.539894342000025, 7.015923023000028], [1.536942840000052, 7.028712749000022], [1.544813633000047, 7.042486668000038], [1.558587432000024, 7.044454575000032], [1.576296687000024, 7.062163830000031], [1.537926674000062, 7.084792137000022], [1.521201253000072, 7.08577585200004], [1.509395123000047, 7.093646526000043], [1.503491998000072, 7.109388351000064], [1.484798908000073, 7.111355782000032], [1.464138150000053, 7.10348510700004], [1.463154316000043, 7.120210648000068], [1.447412729000064, 7.130049229000065], [1.439541936000069, 7.142838955000059], [1.438558102000059, 7.172354698000049], [1.442493439000032, 7.186128616000076], [1.454299688000049, 7.191047668000067], [1.478895783000041, 7.193999290000022], [1.480863571000043, 7.202853680000032], [1.472008944000038, 7.211708546000068], [1.468073487000026, 7.227449894000074], [1.456267357000058, 7.237288475000071], [1.452331901000036, 7.256965637000064], [1.465668569000059, 7.27904772100004], [1.432500005000065, 7.277778149000028], [1.408611059000066, 7.269443989000024], [1.371111035000069, 7.245554924000032], [1.342221975000029, 7.222777843000074], [1.294443965000028, 7.195278168000073], [1.252221942000062, 7.183610916000021], [1.219166994000034, 7.179165840000053], [1.168611050000038, 7.179721832000041], [1.148332953000022, 7.173611164000022], [1.12750005700002, 7.160832882000022], [1.052500010000074, 7.099443913000073], [1.024999976000061, 7.088611126000046], [0.992222190000064, 7.082221985000047], [0.989166677000071, 7.077777863000051], [0.961388886000066, 7.065834045000031], [0.936111093000022, 7.050000191000038], [0.920000017000064, 7.031389236000052], [0.910000026000034, 7.011666775000037], [0.894722223000031, 6.961944103000064], [0.889444411000056, 6.909721851000029], [0.892222226000058, 6.825554848000024], [1.121943951000048, 6.808888912000043], [1.125, 6.805277824000029], [1.117777944000068, 6.79777813000004], [1.120000005000065, 6.793334007000055], [1.149166942000022, 6.788610935000065], [1.156111002000046, 6.775556087000041], [1.180832982000027, 6.763888836000035], [1.19611096400007, 6.738611221000042], [1.240712047000045, 6.72179794300007], [1.308055997000054, 6.786943913000073], [1.375833035000028, 6.833889008000028], [1.411110997000037, 6.84444522900003], [1.464722037000058, 6.831110954000053], [1.477221966000059, 6.830277920000071], [1.498056054000074, 6.836111069000026], [1.515555978000066, 6.844999790000031], [1.530277967000075, 6.857222080000042], [1.550555944000052, 6.893888950000076], [1.557500005000065, 6.900834084000053], [1.587612992000061, 6.91304455300002]]]}}, {"type": "Feature", "id": "KPELE", "properties": {"map_key": "KPELE", "libelle": "Kp\u00e9l\u00e9"}, "geometry": {"type": "Polygon", "coordinates": [[[0.79086099400007, 7.290969261000043], [0.764549315000068, 7.279201031000071], [0.755374372000063, 7.224985600000025], [0.730351865000046, 7.175774574000059], [0.660758235974444, 7.142813621744887], [0.654789274000052, 7.083328552000069], [0.662403549000032, 7.056678588000068], [0.68524637500002, 7.037642900000037], [0.715703476000044, 7.037642900000037], [0.74044987000002, 7.026221487000043], [0.750916243000063, 6.994288445000052], [0.769060016000026, 6.993078709000031], [0.777527153000051, 6.983402252000076], [0.794461310000031, 6.948324203000027], [0.818653047000055, 6.916874886000073], [0.846473515000071, 6.901150227000073], [0.863407671000061, 6.912036896000075], [0.890169203000028, 6.920064926000066], [0.894722223000031, 6.961944103000064], [0.901944399000058, 6.989445210000042], [0.910000026000034, 7.011666775000037], [0.928888917000052, 7.043334007000055], [0.939166725000064, 7.052499771000043], [0.989166677000071, 7.077777863000051], [0.992222190000064, 7.082221985000047], [0.993055582000068, 7.130278111000052], [0.987222314000064, 7.169444084000077], [0.984974130000069, 7.219943501000046], [0.981666625000059, 7.23527813000004], [0.968888879000076, 7.263054848000024], [0.953611076000072, 7.28194522900003], [0.939999998000076, 7.289721966000059], [0.922500014000036, 7.293611050000038], [0.87944400300006, 7.294445038000049], [0.80805558000003, 7.288610935000065], [0.79086099400007, 7.290969261000043]]]}}, {"type": "Feature", "id": "MOYEN-MONO", "properties": {"map_key": "MOYEN-MONO", "libelle": "Moyen-Mono"}, "geometry": {"type": "Polygon", "coordinates": [[[1.55783, 6.99749], [1.58637, 6.99791], [1.5935, 6.99353], [1.60663, 6.9965], [1.642029912000055, 6.994573224000021], [1.63566, 7.2698], [1.635889395000049, 7.400906702000043], [1.594722033000039, 7.346110821000025], [1.543889046000061, 7.292778015000067], [1.513056040000038, 7.284721851000029], [1.465668569000059, 7.27904772100004], [1.452331901000036, 7.256965637000064], [1.456267357000058, 7.237288475000071], [1.468073487000026, 7.227449894000074], [1.472008944000038, 7.211708546000068], [1.480863571000043, 7.202853680000032], [1.478895783000041, 7.193999290000022], [1.454299688000049, 7.191047668000067], [1.442493439000032, 7.186128616000076], [1.438558102000059, 7.172354698000049], [1.439541936000069, 7.142838955000059], [1.447412729000064, 7.130049229000065], [1.463154316000043, 7.120210648000068], [1.464138150000053, 7.10348510700004], [1.484798908000073, 7.111355782000032], [1.503491998000072, 7.109388351000064], [1.509395123000047, 7.093646526000043], [1.521201253000072, 7.08577585200004], [1.537926674000062, 7.084792137000022], [1.576296687000024, 7.062163830000031], [1.558587432000024, 7.044454575000032], [1.544813633000047, 7.042486668000038], [1.536942840000052, 7.028712749000022], [1.539894342000025, 7.015923023000028], [1.553668261000041, 7.011003494000022], [1.55783, 6.99749]]]}}, {"type": "Feature", "id": "OGOU", "properties": {"map_key": "OGOU", "libelle": "Ogou"}, "geometry": {"type": "Polygon", "coordinates": [[[0.984974130000069, 7.219943501000046], [0.987222314000064, 7.169444084000077], [0.993055582000068, 7.130278111000052], [0.992222190000064, 7.082221985000047], [0.997777820000067, 7.082221985000047], [1.024999976000061, 7.088611126000046], [1.052500010000074, 7.099443913000073], [1.12750005700002, 7.160832882000022], [1.153610945000025, 7.175833225000076], [1.174999952000064, 7.180277824000029], [1.219166994000034, 7.179165840000053], [1.274999976000061, 7.18861103100005], [1.303333044000055, 7.199166775000037], [1.324167013000022, 7.211111069000026], [1.383888960000036, 7.254445076000025], [1.416666985000063, 7.273889065000049], [1.432500005000065, 7.277778149000028], [1.485556006000024, 7.280556202000071], [1.543889046000061, 7.292778015000067], [1.594722033000039, 7.346110821000025], [1.635889395000049, 7.400906702000043], [1.643625105000069, 7.483234075000041], [1.607842517000051, 7.488203879000025], [1.600939294000057, 7.495970005000061], [1.600076391000073, 7.507187742000042], [1.588858654000035, 7.519268382000064], [1.557794152000042, 7.530486119000045], [1.537084483000058, 7.532211924000023], [1.528455455000028, 7.520994187000042], [1.527592552000044, 7.503736131000039], [1.519826426000066, 7.496832908000044], [1.511197398000036, 7.494244199000036], [1.492213535000076, 7.495970005000061], [1.472366770000065, 7.488203879000025], [1.448205490000021, 7.484752268000022], [1.441302267000026, 7.421760360000064], [1.434399045000021, 7.415720040000053], [1.403334542000039, 7.454550668000024], [1.399882931000036, 7.469220017000055], [1.379173262000052, 7.476986142000044], [1.376584554000033, 7.487340976000041], [1.380036165000035, 7.495970005000061], [1.379173262000052, 7.504599033000034], [1.355011983000054, 7.515816770000072], [1.342068440000048, 7.515816770000072], [1.336028120000037, 7.519268382000064], [1.336891023000021, 7.530486119000045], [1.342931343000032, 7.533074827000064], [1.344657149000057, 7.545155467000029], [1.336028120000037, 7.552058690000024], [1.314455549000058, 7.556373204000067], [1.306689423000023, 7.56500223300003], [1.316181355000026, 7.588300609000044], [1.304100715000061, 7.59347802700006], [1.292020075000039, 7.589163512000027], [1.283391047000066, 7.594340929000055], [1.28425394900006, 7.604695764000041], [1.296334589000026, 7.623679626000069], [1.296334589000026, 7.636623169000075], [1.281665241000042, 7.665961866000032], [1.25060073800006, 7.67717960300007], [1.20055237300005, 7.679768311000032], [1.192786248000061, 7.693574757000022], [1.195374956000023, 7.722050551000052], [1.193649150000056, 7.736719899000036], [1.191060442000037, 7.743623122000031], [1.184157219000042, 7.744486025000072], [1.167762065000034, 7.736719899000036], [1.156111002000046, 7.721388817000047], [1.150555015000066, 7.666944981000029], [1.161666989000025, 7.626389027000073], [1.132500052000069, 7.583611012000063], [1.121667027000058, 7.558055878000062], [1.118610978000049, 7.514166832000058], [1.121667027000058, 7.479444981000029], [1.142778039000063, 7.439167023000039], [1.138610959000061, 7.416110992000029], [1.123056054000074, 7.389165878000028], [1.120000005000065, 7.376945019000061], [1.113610983000058, 7.32000017200005], [1.101389050000023, 7.304166794000025], [0.988888919000033, 7.226388931000031], [0.984974130000069, 7.219943501000046]]]}}, {"type": "Feature", "id": "KPENDJAL", "properties": {"map_key": "KPENDJAL", "libelle": "Kpendjal + Kpendjal-Ouest"}, "geometry": {"type": "Polygon", "coordinates": [[[0.804607402000045, 10.724182132000067], [0.85163, 10.78297], [0.867837364000025, 10.795268], [0.87382, 10.80496], [0.88508, 10.86182], [0.90097948600004, 10.886741251000046], [0.89052, 10.92094], [0.912155272000064, 10.996490061000031], [0.65631, 10.99735], [0.59506, 10.96956], [0.589, 10.96975], [0.49468, 10.931], [0.50634, 10.97321], [0.50584, 10.98011], [0.49372, 10.98234], [0.48997, 10.98623], [0.502845989000036, 11.009080056000073], [0.408804893000024, 11.027991697000061], [0.409830689000046, 10.986471176000066], [0.393417627000019, 10.961852074000035], [0.386236906000022, 10.923896790000072], [0.355462372000034, 10.883890152000049], [0.306223154000065, 10.807979584000066], [0.295964986000058, 10.782333374000075], [0.30519732800002, 10.763869286000045], [0.320584595000071, 10.768998146000058], [0.330842763000021, 10.78438568100006], [0.334946036000019, 10.768998146000058], [0.313403875000063, 10.717707634000021], [0.310326427000064, 10.701293945000032], [0.313350230000026, 10.691920280000033], [0.341040462000024, 10.694363594000038], [0.379439712000021, 10.692443848000039], [0.471597880000047, 10.703963280000039], [0.492717475000063, 10.694363594000038], [0.515757024000038, 10.690524101000051], [0.540716529000065, 10.677083969000023], [0.602155328000038, 10.702043533000051], [0.671273947000032, 10.715483665000022], [0.75383228100003, 10.727003098000068], [0.804607402000045, 10.724182132000067]]]}}, {"type": "Feature", "id": "OTI", "properties": {"map_key": "OTI", "libelle": "Oti + Oti-Sud"}, "geometry": {"type": "Polygon", "coordinates": [[[0.998343300000045, 10.22082940000007], [0.77457, 10.38476], [0.78323, 10.51218], [0.80082, 10.55781], [0.80757, 10.59096], [0.80582, 10.64336], [0.79693, 10.68492], [0.804607402000045, 10.724182132000067], [0.75383228100003, 10.727003098000068], [0.671273947000032, 10.715483665000022], [0.602155328000038, 10.702043533000051], [0.540716529000065, 10.677083969000023], [0.515757024000038, 10.690524101000051], [0.492717475000063, 10.694363594000038], [0.471597880000047, 10.703963280000039], [0.379439712000021, 10.692443848000039], [0.341040462000024, 10.694363594000038], [0.313251644000047, 10.691911697000023], [0.326913327000057, 10.666213989000028], [0.32524800300007, 10.620965958000056], [0.303404331000024, 10.608657837000067], [0.295239627000058, 10.577428818000044], [0.277311146000045, 10.572583199000064], [0.246057466000025, 10.555624008000052], [0.236245260000032, 10.539512634000062], [0.206081823000034, 10.42812538100003], [0.200327754000057, 10.41994857800006], [0.203019008000069, 10.411183357000027], [0.219530067000051, 10.423634518000028], [0.238042274000065, 10.409310163000043], [0.239303389000042, 10.41249864100007], [0.244133694000027, 10.412784177000049], [0.255650286000048, 10.405503026000076], [0.266500628000074, 10.407763514000067], [0.275090481000063, 10.41849488300005], [0.286749840000027, 10.419018364000067], [0.291413584000054, 10.407906282000056], [0.298171252000031, 10.40816802200004], [0.300931428000069, 10.402885619000074], [0.302573256000073, 10.391416617000061], [0.293626482000036, 10.380042794000076], [0.294816213000047, 10.37347548100007], [0.307736686000055, 10.368859327000052], [0.314256409000052, 10.361316436000038], [0.319515017000072, 10.335261338000066], [0.323060415000043, 10.334285759000068], [0.327200677000064, 10.338283254000032], [0.33424388100002, 10.335213749000047], [0.338907625000047, 10.325077245000045], [0.337004055000023, 10.320865600000047], [0.325820588000056, 10.317177435000076], [0.321442380000065, 10.30751682400006], [0.331412323000052, 10.309206241000027], [0.34756886200006, 10.305375309000055], [0.353398542000036, 10.312132978000022], [0.363178126000037, 10.308777938000048], [0.389756705000025, 10.31463141200004], [0.39632401800003, 10.312275745000022], [0.396847499000046, 10.303876248000051], [0.388233849000073, 10.302734107000049], [0.37583685900006, 10.287719708000054], [0.369531287000029, 10.284436052000046], [0.37233905100004, 10.279605746000072], [0.379358461000038, 10.278534989000036], [0.382499350000046, 10.272610131000022], [0.362416698000061, 10.260117961000049], [0.360798665000061, 10.222474889000068], [0.35185189200007, 10.191280156000062], [0.354231353000046, 10.181690928000023], [0.351209437000023, 10.167390368000042], [0.363035359000037, 10.143714731000046], [0.363749196000072, 10.13381617300007], [0.353231980000032, 10.108879423000076], [0.353160596000066, 10.101788629000055], [0.35508795800007, 10.091937660000042], [0.361250763000044, 10.085227581000026], [0.394325270000024, 10.08004035600004], [0.416597025000044, 10.059481813000048], [0.412528147000046, 10.045419199000037], [0.411362211000039, 10.02188633000003], [0.40760872900006, 10.019869476000054], [0.422500014000036, 9.99416732800006], [0.419722199000034, 9.970277786000054], [0.42055550200007, 9.964721680000025], [0.427500010000074, 9.957500458000027], [0.446388900000045, 9.956944466000039], [0.457222193000064, 9.946666718000074], [0.468055155000059, 9.942777706000072], [0.47694438700006, 9.94805526700003], [0.483332992000044, 9.94805526700003], [0.495833308000044, 9.941111565000028], [0.520555615000035, 9.940278053000043], [0.524444401000039, 9.937221527000077], [0.51527780300006, 9.925000191000038], [0.517777681000041, 9.909443855000063], [0.523888886000066, 9.901944160000028], [0.538611114000048, 9.895277977000035], [0.549444497000025, 9.878889084000036], [0.55805558000003, 9.873055458000067], [0.564166725000064, 9.871666908000066], [0.582777798000052, 9.880833626000026], [0.594444513000042, 9.883055687000024], [0.626110972000049, 9.883610718000057], [0.631944461000046, 9.891943892000029], [0.638333321000061, 9.891388893000055], [0.655277729000034, 9.873611450000055], [0.666111112000067, 9.883333206000032], [0.673332989000073, 9.883333206000032], [0.679293990000076, 9.875913620000063], [0.682777822000048, 9.887222290000068], [0.666666687000031, 9.942222595000032], [0.674444377000043, 9.956110954000053], [0.675833285000067, 9.974721909000039], [0.68777781700004, 9.990555763000032], [0.686944425000036, 10.033889771000077], [0.694722176000028, 10.064169884000023], [0.703888893000055, 10.083330154000066], [0.733888924000041, 10.123609543000043], [0.742777824000029, 10.145000458000027], [0.738055587000019, 10.153059959000075], [0.738888919000033, 10.16055011700007], [0.732777774000056, 10.168330193000031], [0.736666679000052, 10.172780037000052], [0.754166722000036, 10.182499886000073], [0.76749998300005, 10.174719810000056], [0.776388884000028, 10.180000305000021], [0.781944513000042, 10.179439545000037], [0.794444501000044, 10.171939850000058], [0.803611100000069, 10.153329849000045], [0.809166729000026, 10.152219772000024], [0.82277768900002, 10.165829659000053], [0.838333309000063, 10.17111015300003], [0.849444389000041, 10.181670189000045], [0.855000019000045, 10.182499886000073], [0.858333272000039, 10.179169673000047], [0.881111085000043, 10.176670074000072], [0.891388893000055, 10.166390419000038], [0.896944523000059, 10.165280342000074], [0.90472221400006, 10.17249965700006], [0.908611119000057, 10.182499886000073], [0.91638892900005, 10.188059807000059], [0.960555613000054, 10.180279732000031], [0.977222204000043, 10.18389034300003], [0.990277827000057, 10.199170113000037], [0.998343300000045, 10.22082940000007]]]}}, {"type": "Feature", "id": "TANDJOARE", "properties": {"map_key": "TANDJOARE", "libelle": "Tandjoar\u00e9"}, "geometry": {"type": "Polygon", "coordinates": [[[0.313251644000047, 10.691911697000023], [0.27576175300004, 10.688603401000023], [0.248882294000055, 10.711643219000052], [0.122164801000054, 10.790361404000066], [0.078005679000057, 10.801881790000039], [0.062645979000024, 10.801881790000039], [0.043446362000054, 10.786521912000069], [0.053046171000062, 10.759642601000053], [0.031926587000044, 10.730842590000066], [0.016566893000061, 10.744282722000037], [0.005047121000075, 10.76348209400004], [-0.039112004999936, 10.767322540000066], [-0.074857760999976, 10.757650862000048], [-0.07081175899998, 10.740198005000025], [-0.074333360999958, 10.730275653000035], [-0.072715326999969, 10.719996381000044], [-0.08920500399995, 10.712691390000032], [-0.090680256999974, 10.707266265000044], [-0.071370962999936, 10.671676019000074], [-0.070502427999941, 10.659486689000062], [-0.05955698799994, 10.63105237600007], [-0.015417820999971, 10.621605380000062], [-0.011753536999947, 10.614229341000055], [0.040648923000049, 10.600022267000043], [0.043687903000034, 10.592171738000047], [0.056275252000034, 10.582511127000032], [0.061413705000064, 10.560509783000043], [0.118498156000044, 10.539228732000026], [0.130395461000035, 10.529401558000075], [0.143456740000033, 10.525382781000076], [0.149216996000064, 10.49894445800004], [0.153262080000047, 10.495042142000045], [0.153000339000073, 10.484667692000073], [0.16232782700007, 10.47255623600006], [0.15773546600002, 10.462657678000028], [0.167015365000054, 10.450403454000025], [0.175153121000051, 10.446191808000037], [0.17046558200002, 10.438625123000065], [0.173344731000043, 10.425585676000026], [0.185170652000068, 10.419874970000023], [0.193332203000068, 10.401576915000021], [0.196734831000072, 10.400125444000025], [0.210107403000052, 10.403575663000026], [0.207857588000024, 10.413059791000023], [0.203019008000069, 10.411183357000027], [0.200327754000057, 10.41994857800006], [0.206081823000034, 10.42812538100003], [0.236245260000032, 10.539512634000062], [0.246057466000025, 10.555624008000052], [0.277311146000045, 10.572583199000064], [0.295239627000058, 10.577428818000044], [0.303404331000024, 10.608657837000067], [0.32524800300007, 10.620965958000056], [0.326913327000057, 10.666213989000028], [0.313251644000047, 10.691911697000023]]]}}, {"type": "Feature", "id": "TONE", "properties": {"map_key": "TONE", "libelle": "T\u00f4ne"}, "geometry": {"type": "Polygon", "coordinates": [[[0.408804893000024, 11.027991697000061], [0.228302642000074, 11.064557947000026], [0.223396750000063, 11.045479476000025], [0.237242038000034, 11.017788899000038], [0.24339550000002, 10.988559955000028], [0.237242038000034, 10.968561205000071], [0.224935115000051, 10.963946108000073], [0.184937614000035, 10.99471341700007], [0.155708670000024, 11.005481975000066], [0.131094823000069, 11.005481975000066], [0.115711169000065, 11.02086562900007], [0.078790398000024, 11.033172553000043], [0.026839426000038, 11.018674482000051], [0.0272, 11.0063], [0.034693540000035, 10.989803460000076], [0.032385464000072, 10.977406468000027], [0.01432535500004, 10.969649425000057], [0.009447460000047, 10.963938719000055], [-0.003187478999962, 10.962249302000032], [-0.006947025999978, 10.954397081000025], [-0.006019035999941, 10.944998210000051], [-0.010801752999953, 10.940834153000026], [-0.007256355999971, 10.913898655000025], [-0.013395364999951, 10.90552295200007], [-0.019558169999925, 10.886082756000064], [-0.025102312999934, 10.879991336000046], [-0.028814271999977, 10.859694534000027], [-0.029337753999926, 10.84929629000004], [-0.02346048499993, 10.834615016000043], [-0.021937630999957, 10.819838563000076], [-0.028766683999947, 10.814865490000045], [-0.030646457999978, 10.806870501000049], [-0.042900680999935, 10.799922475000074], [-0.045446703999971, 10.792665119000048], [-0.057058473999973, 10.785621915000036], [-0.074857760999976, 10.757650862000048], [-0.039112004999936, 10.767322540000066], [0.005047121000075, 10.76348209400004], [0.016566893000061, 10.744282722000037], [0.031926587000044, 10.730842590000066], [0.053046171000062, 10.759642601000053], [0.043446362000054, 10.786521912000069], [0.062645979000024, 10.801881790000039], [0.078005679000057, 10.801881790000039], [0.122164801000054, 10.790361404000066], [0.248882294000055, 10.711643219000052], [0.27576175300004, 10.688603401000023], [0.313350230000026, 10.691920280000033], [0.310326427000064, 10.701293945000032], [0.313403875000063, 10.717707634000021], [0.334946036000019, 10.768998146000058], [0.330842763000021, 10.78438568100006], [0.320584595000071, 10.768998146000058], [0.30519732800002, 10.763869286000045], [0.295964986000058, 10.782333374000075], [0.306223154000065, 10.807979584000066], [0.355462372000034, 10.883890152000049], [0.386236906000022, 10.923896790000072], [0.393417627000019, 10.961852074000035], [0.409830689000046, 10.986471176000066], [0.408804893000024, 11.027991697000061]]]}}, {"type": "Feature", "id": "CINKASSE", "properties": {"map_key": "CINKASSE", "libelle": "Cinkass\u00e9"}, "geometry": {"type": "Polygon", "coordinates": [[[0.228302642000074, 11.064557947000026], [-0.142010303999939, 11.138978485000052], [-0.14732, 11.11248], [-0.143020000999968, 11.10149], [-0.12787, 11.10095], [-0.11170108999994, 11.09007075900007], [-0.093750000999933, 11.088630004000038], [-0.035000000999958, 11.10528], [-0.00219, 11.10512], [0.00987, 11.10144], [0.02275, 11.08191], [0.026839426000038, 11.018674482000051], [0.078790398000024, 11.033172553000043], [0.115711169000065, 11.02086562900007], [0.131094823000069, 11.005481975000066], [0.155708670000024, 11.005481975000066], [0.184937614000035, 10.99471341700007], [0.224935115000051, 10.963946108000073], [0.237242038000034, 10.968561205000071], [0.24339550000002, 10.988559955000028], [0.237242038000034, 11.017788899000038], [0.223396750000063, 11.045479476000025], [0.228302642000074, 11.064557947000026]]]}}, {"type": "Feature", "id": "MO", "properties": {"map_key": "MO", "libelle": "M\u00f4"}, "geometry": {"type": "Polygon", "coordinates": [[[0.694239928000059, 9.01031462100002], [0.68583327500005, 9.003889084000036], [0.671666682000023, 8.98333358800005], [0.643333316000053, 8.981666565000069], [0.636944413000037, 8.97416591600006], [0.630833328000051, 8.945555687000024], [0.612777829000038, 8.92833328200004], [0.583888888000047, 8.915555], [0.578611076000072, 8.90638828300007], [0.578611076000072, 8.899444580000022], [0.591111124000065, 8.89194393200006], [0.592499971000052, 8.886111259000074], [0.591944396000031, 8.88000011400004], [0.58472222100005, 8.873333931000047], [0.573888898000064, 8.870278358000064], [0.554722190000064, 8.872500420000051], [0.535833418000038, 8.848888397000053], [0.514166713000066, 8.843054771000027], [0.501634406000051, 8.845565005000026], [0.495194569000034, 8.839636942000027], [0.499858313000061, 8.82952423300003], [0.494552114000044, 8.821148530000073], [0.49797853900003, 8.814914343000055], [0.48981698800003, 8.80092311200002], [0.478371780000032, 8.797591867000051], [0.471376165000038, 8.799328873000036], [0.466331708000041, 8.792713972000058], [0.457789443000024, 8.801827307000053], [0.455790695000076, 8.811559303000024], [0.450579676000075, 8.812963185000058], [0.444559639000033, 8.803659492000065], [0.431210864000036, 8.797948786000063], [0.430782560000068, 8.793594373000076], [0.436755008000034, 8.796449726000048], [0.442251562000024, 8.789049602000034], [0.427713056000073, 8.78034077500007], [0.423810741000068, 8.781839835000028], [0.422478241000022, 8.78957308400004], [0.41864730900005, 8.792476026000031], [0.397493901000075, 8.791214912000044], [0.391783196000063, 8.794474773000047], [0.380076247000034, 8.790405895000049], [0.381170800000064, 8.770846726000059], [0.384692401000052, 8.766825437000023], [0.400277871000071, 8.763137272000051], [0.401039299000047, 8.757545539000034], [0.395685512000057, 8.754452240000035], [0.37574562900005, 8.754904337000028], [0.38473999100006, 8.745957564000037], [0.381075622000026, 8.739770966000037], [0.471233397000049, 8.595385274000023], [0.478086245000043, 8.592886840000062], [0.48096539300002, 8.596598800000038], [0.490221496000061, 8.597193665000077], [0.494861445000026, 8.591935056000068], [0.499001707000048, 8.574089099000048], [0.510565886000052, 8.563476703000049], [0.518322929000021, 8.562072821000072], [0.52800733600003, 8.569734685000071], [0.532004830000062, 8.56775973300006], [0.533955988000059, 8.558979522000072], [0.538595937000025, 8.555624482000042], [0.558630998000069, 8.550175516000024], [0.569148215000041, 8.533781030000057], [0.568244020000066, 8.525333944000067], [0.584186408000051, 8.525024614000074], [0.588564616000042, 8.516815474000055], [0.601104376000023, 8.518433507000054], [0.611395247000075, 8.51351900800006], [0.630293374000075, 8.537390327000026], [0.687645625000073, 8.552190908000057], [0.720946932000061, 8.574391779000052], [0.754248239000049, 8.61509337700005], [0.78199932800004, 8.63914432100006], [0.778299183000058, 8.657645047000074], [0.752398166000035, 8.690946354000062], [0.706146351000029, 8.720547515000021], [0.700596133000033, 8.846352452000076], [0.720946932000061, 8.86115303300005], [0.735747513000035, 8.864853178000033], [0.743147803000056, 8.872253469000043], [0.715396714000065, 8.903704703000074], [0.707996424000044, 8.981407753000042], [0.694239928000059, 9.01031462100002]]]}}, {"type": "Feature", "id": "AKEBOU", "properties": {"map_key": "AKEBOU", "libelle": "Ak\u00e9bou"}, "geometry": {"type": "Polygon", "coordinates": [[[1.050163031000068, 7.904068947000042], [1.040277958000047, 7.945556164000038], [1.034167051000054, 7.953888893000055], [1.033226013000046, 7.962689877000059], [0.985555589000057, 7.972499847000051], [0.962777793000043, 7.980556011000033], [0.929444492000073, 7.967778206000048], [0.87944400300006, 7.958889008000028], [0.854166687000031, 7.961944103000064], [0.84027767200007, 7.969721794000066], [0.834166586000038, 7.969721794000066], [0.824999988000059, 7.950832844000047], [0.80805558000003, 7.942222118000075], [0.753888905000053, 7.930554869000048], [0.723611116000029, 7.934443951000048], [0.701388896000026, 7.923055172000034], [0.68138891500007, 7.900556087000041], [0.61729968800006, 7.896689722000076], [0.624234029000036, 7.864814057000046], [0.622330459000068, 7.843541676000029], [0.617785690000062, 7.842637481000054], [0.617238413000052, 7.801663164000047], [0.618071225000051, 7.796737679000046], [0.62813634500003, 7.796285582000053], [0.632800088000067, 7.777083332000075], [0.630230271000073, 7.768088969000075], [0.622044924000022, 7.764305626000066], [0.611361145000046, 7.751313770000024], [0.620022382000059, 7.746388285000023], [0.632062418000032, 7.706493200000068], [0.650147812000057, 7.700968980000027], [0.650147812000057, 7.679220693000048], [0.655821278000076, 7.64801662900004], [0.670950521000066, 7.627213920000031], [0.693644386000074, 7.61964929800007], [0.713501518000044, 7.62626834200006], [0.756052514000032, 7.655581251000058], [0.77874637900004, 7.665982605000067], [0.794821200000058, 7.635724119000031], [0.807113710000067, 7.63288738600005], [0.827916419000076, 7.684894159000066], [0.902628666000055, 7.691314743000021], [0.911666572000058, 7.778889179000032], [0.926388919000033, 7.822778225000036], [0.944166720000055, 7.855278015000067], [0.953055620000043, 7.865277767000066], [0.966388881000057, 7.872777939000059], [0.998611212000071, 7.887499809000076], [1.050163031000068, 7.904068947000042]]]}}, {"type": "Feature", "id": "ANIE", "properties": {"map_key": "ANIE", "libelle": "Ani\u00e9"}, "geometry": {"type": "Polygon", "coordinates": [[[1.156111002000046, 7.721388817000047], [1.167762065000034, 7.736719899000036], [1.184157219000042, 7.744486025000072], [1.191060442000037, 7.743623122000031], [1.195374956000023, 7.728953773000057], [1.192786248000061, 7.693574757000022], [1.20055237300005, 7.679768311000032], [1.25060073800006, 7.67717960300007], [1.281665241000042, 7.665961866000032], [1.296334589000026, 7.636623169000075], [1.296334589000026, 7.623679626000069], [1.28425394900006, 7.604695764000041], [1.283391047000066, 7.594340929000055], [1.292020075000039, 7.589163512000027], [1.304100715000061, 7.59347802700006], [1.316181355000026, 7.588300609000044], [1.306689423000023, 7.56500223300003], [1.314455549000058, 7.556373204000067], [1.336028120000037, 7.552058690000024], [1.344657149000057, 7.545155467000029], [1.342931343000032, 7.533074827000064], [1.336891023000021, 7.530486119000045], [1.336028120000037, 7.519268382000064], [1.342068440000048, 7.515816770000072], [1.355011983000054, 7.515816770000072], [1.379173262000052, 7.504599033000034], [1.380036165000035, 7.495970005000061], [1.376584554000033, 7.487340976000041], [1.379173262000052, 7.476986142000044], [1.399882931000036, 7.469220017000055], [1.403334542000039, 7.454550668000024], [1.434399045000021, 7.415720040000053], [1.441302267000026, 7.421760360000064], [1.448205490000021, 7.484752268000022], [1.472366770000065, 7.488203879000025], [1.492213535000076, 7.495970005000061], [1.511197398000036, 7.494244199000036], [1.519826426000066, 7.496832908000044], [1.527592552000044, 7.503736131000039], [1.528455455000028, 7.520994187000042], [1.537084483000058, 7.532211924000023], [1.557794152000042, 7.530486119000045], [1.588858654000035, 7.519268382000064], [1.600076391000073, 7.507187742000042], [1.600939294000057, 7.495970005000061], [1.607842517000051, 7.488203879000025], [1.643625105000069, 7.483234075000041], [1.64827, 7.49244], [1.675676509000027, 7.494699966000042], [1.67753, 7.49791], [1.66834, 7.51769], [1.65982, 7.52068], [1.65293, 7.53402], [1.64837, 7.56757], [1.65051, 7.61399], [1.63741, 7.64042], [1.631449984000028, 7.661110698000073], [1.63625, 7.80307], [1.63052, 7.82697], [1.633683875000031, 7.93155838000007], [1.58942914000005, 7.940409184000032], [1.570736885000031, 7.940409184000032], [1.511989594000056, 7.916376114000059], [1.498637915000074, 7.889673233000053], [1.49196207500006, 7.857629299000052], [1.495967507000046, 7.821579456000052], [1.48929178700007, 7.814903736000076], [1.473269701000049, 7.813568592000024], [1.450571895000053, 7.816238880000071], [1.36779165300004, 7.848282814000072], [1.349099398000021, 7.861634731000038], [1.33841800700003, 7.87365102800004], [1.315720201000033, 7.916376114000059], [1.299698234000061, 7.919046879000064], [1.272994995000033, 7.915040970000064], [1.236945510000055, 7.915040970000064], [1.194220185000063, 7.920382023000059], [1.170187235000071, 7.935068607000062], [1.164846539000052, 7.965635777000045], [1.071388960000036, 7.948888779000072], [1.058889031000035, 7.950277805000042], [1.033226013000046, 7.962689877000059], [1.034167051000054, 7.953888893000055], [1.040277958000047, 7.945556164000038], [1.053611040000021, 7.891665936000038], [1.060278058000051, 7.884722233000048], [1.070278049000024, 7.880834103000041], [1.087499976000061, 7.849999905000061], [1.091943979000064, 7.827221870000074], [1.103888988000051, 7.799167156000067], [1.127778053000043, 7.793611050000038], [1.143610954000053, 7.780834198000036], [1.151666999000042, 7.759722233000048], [1.156111002000046, 7.721388817000047]]]}}, {"type": "Feature", "id": "KLOTO", "properties": {"map_key": "KLOTO", "libelle": "Kloto"}, "geometry": {"type": "Polygon", "coordinates": [[[0.750916243000063, 6.994288445000052], [0.74044987000002, 7.026221487000043], [0.715703476000044, 7.037642900000037], [0.68524637500002, 7.037642900000037], [0.662403549000032, 7.056678588000068], [0.654789274000052, 7.083328552000069], [0.660758235974444, 7.142813621744887], [0.59542979500003, 7.112066656000025], [0.59817485800005, 7.112895777000062], [0.603576235000048, 7.106161903000043], [0.61276095300002, 7.104282128000023], [0.613688944000046, 7.092551386000025], [0.595910650000064, 7.061000278000051], [0.60171981600007, 7.036490767000032], [0.599388383000075, 7.032684148000044], [0.601054006000027, 7.024165678000031], [0.59120303800006, 7.011364178000065], [0.595176736000042, 7.00798534300003], [0.57830635800002, 6.99442241600002], [0.569645121000065, 6.99727776900005], [0.548087205000058, 6.991638447000071], [0.539354582000044, 6.985951535000027], [0.534333921000041, 6.977623422000022], [0.526648262000037, 6.973721106000028], [0.523221837000051, 6.974958425000068], [0.521841749000032, 6.971246466000025], [0.525339558000042, 6.965845090000073], [0.521841749000032, 6.962537639000061], [0.524078444000054, 6.955779970000037], [0.520366484000022, 6.948808149000058], [0.522793535000062, 6.941170080000063], [0.545374619000029, 6.93495968600007], [0.547516134000034, 6.937196380000046], [0.549844295000071, 6.929563881000036], [0.557930049000049, 6.92898916300004], [0.563291960000072, 6.925227691000032], [0.565541803000031, 6.918914608000023], [0.558612242000038, 6.887755340000069], [0.551370861000066, 6.881112485000074], [0.534809813000038, 6.877424320000046], [0.54365180700006, 6.864061279000055], [0.532477940000035, 6.856009172000029], [0.532168611000031, 6.832404919000055], [0.535253287000046, 6.832912167000075], [0.532834860000037, 6.828978495000058], [0.539521145000037, 6.825290331000076], [0.545993279000072, 6.828193273000068], [0.545493591000024, 6.832595276000063], [0.548872427000049, 6.83399915800004], [0.560626964000051, 6.823481940000022], [0.566313875000048, 6.82343435100006], [0.568689445000075, 6.81947176400007], [0.566595519000032, 6.814831816000037], [0.570236093000062, 6.810501197000065], [0.58058674900002, 6.807883790000062], [0.576517871000021, 6.799127373000033], [0.56707141000004, 6.803481787000067], [0.570581116000028, 6.794201889000021], [0.566226703000041, 6.78446989400004], [0.577719499000068, 6.775594504000026], [0.572627453000052, 6.77478548800002], [0.580051371000025, 6.763744789000043], [0.602108974000032, 6.756558817000041], [0.60810521600007, 6.747612043000061], [0.621644349000064, 6.754131766000057], [0.626379476000068, 6.746636464000062], [0.63394616100004, 6.747921373000054], [0.639516100000037, 6.744994577000057], [0.644472778000022, 6.753581047000068], [0.64568233500006, 6.781401634000076], [0.644472778000022, 6.789868355000067], [0.632376909000072, 6.80438375500006], [0.634796083000026, 6.817688942000075], [0.720676601000036, 6.901150227000073], [0.736401260000036, 6.925342083000032], [0.741239607000068, 6.949533939000048], [0.740029991000029, 6.988240719000032], [0.750916243000063, 6.994288445000052]]]}}, {"type": "Feature", "id": "LACS", "properties": {"map_key": "LACS", "libelle": "Lacs"}, "geometry": {"type": "Polygon", "coordinates": [[[1.599722028000031, 6.361667156000067], [1.59555602100005, 6.344999790000031], [1.606111050000038, 6.30388879800006], [1.603610992000029, 6.290555], [1.585832953000022, 6.267499924000049], [1.583055973000057, 6.256111145000034], [1.585000038000032, 6.231111050000038], [1.533889055000031, 6.226110935000065], [1.513888955000027, 6.220277786000054], [1.496943951000048, 6.210556030000021], [1.485278010000059, 6.210000038000032], [1.462499976000061, 6.216111183000066], [1.405277967000075, 6.251389027000073], [1.396944046000044, 6.210556030000021], [1.395555019000028, 6.191667080000059], [1.397916025000029, 6.181196745000022], [1.486298, 6.204521], [1.530050800000026, 6.211494300000027], [1.558623, 6.220445], [1.627868, 6.23429], [1.62956, 6.24237], [1.64567, 6.24809], [1.6682, 6.2476], [1.6804, 6.25448], [1.68983, 6.25332], [1.6942, 6.25699], [1.70984, 6.25719], [1.74898, 6.27111], [1.76392, 6.27181], [1.76898, 6.2748], [1.769899966000025, 6.282159728000067], [1.79933, 6.28056], [1.80669, 6.28424], [1.80186, 6.29068], [1.79542, 6.29321], [1.78921, 6.30287], [1.79748, 6.30724], [1.79794, 6.31276], [1.78275, 6.33898], [1.78781, 6.34381], [1.78919, 6.35048], [1.78016, 6.37233], [1.77234, 6.3774], [1.77075, 6.39167], [1.774208241000053, 6.394421430000023], [1.769534777000047, 6.398222256000054], [1.753770530000054, 6.39403487800007], [1.74757771700007, 6.381649251000056], [1.716613649000067, 6.381133183000031], [1.697519140000054, 6.367199353000046], [1.666039004000027, 6.367199353000046], [1.647976631000063, 6.352749454000048], [1.642815953000024, 6.335719217000076], [1.622173241000041, 6.35378159000004], [1.599722028000031, 6.361667156000067]]]}}]}