{"type": "FeatureCollection", "features": [{"type": "Feature", "id": "Savanes", "properties": {"region": "Savanes"}, "geometry": {"type": "Polygon", "coordinates": [[[1.000278, 10.219444], [0.776667, 10.376667], [0.785278, 10.524444], [0.800556, 10.551111], [0.806944, 10.579722], [0.8075, 10.607222], [0.800278, 10.681111], [0.8025, 10.714167], [0.809722, 10.727778], [0.879444, 10.799722], [0.888611, 10.860833], [0.904444, 10.876944], [0.888611, 10.92], [0.911944, 10.978611], [0.9122091, 10.9961705], [0.65631, 10.99736], [0.59506, 10.96956], [0.589, 10.96975], [0.49468, 10.931], [0.50634, 10.97321], [0.50584, 10.98011], [0.49372, 10.98234], [0.48997, 10.98623], [0.50285, 11.00908], [0.0395609, 11.1009076], [0.0314499, 11.1085557], [0.0183608, 11.113509], [-0.0031489, 11.1113759], [-0.136228, 11.139497], [-0.133809, 11.1298039], [-0.143739, 11.1186226], [-0.1429994, 11.1058198], [-0.1264046, 11.1060112], [-0.1192316, 11.0993372], [-0.1025015, 11.0937308], [-0.1030759, 11.090223], [-0.0949986, 11.0861133], [-0.0547004, 11.0859518], [-0.0461886, 11.1003376], [-0.0194235, 11.1144797], [-0.0046512, 11.107812], [-0.0051837, 11.1008816], [0.001826, 11.0942872], [0.003217, 11.084025], [0.023905, 11.062604], [0.028572, 11.003962], [0.034392, 10.99268], [0.031245, 10.982687], [0.03325, 10.977966], [0.023508, 10.977401], [0.013125, 10.971281], [0.0097266, 10.9655898], [0.0054423, 10.9671131], [-0.0061046, 10.9632369], [-0.0070459, 10.9456402], [-0.0118671, 10.9437544], [-0.007661, 10.9146888], [-0.015077, 10.9063353], [-0.0121979, 10.9054201], [-0.0177198, 10.8895717], [-0.025371, 10.8813609], [-0.0251416, 10.8657582], [-0.0295014, 10.8544666], [-0.0279073, 10.8421743], [-0.0223489, 10.8316816], [-0.021767, 10.818676], [-0.029119, 10.814512], [-0.030527, 10.807279], [-0.038463, 10.804684], [-0.044244, 10.798024], [-0.04469, 10.792201], [-0.056219, 10.786293], [-0.064072, 10.772738], [-0.072847, 10.769827], [-0.069735, 10.76413], [-0.074294, 10.757355], [-0.070945, 10.741817], [-0.074411, 10.730086], [-0.072346, 10.720047], [-0.085675, 10.7164], [-0.09009, 10.7115612], [-0.070389, 10.669951], [-0.069839, 10.659269], [-0.060523, 10.634395], [-0.015695, 10.623597], [-0.011815, 10.615744], [0.041287, 10.601442], [0.042873, 10.594405], [0.056124, 10.583512], [0.060996, 10.560818], [0.117222, 10.541419], [0.127629, 10.529747], [0.1426695, 10.5262702], [0.144137, 10.515129], [0.147326, 10.513568], [0.146972, 10.501233], [0.151202, 10.497285], [0.150623, 10.487182], [0.154809, 10.4846], [0.154139, 10.477714], [0.158871, 10.47518], [0.15426, 10.46508], [0.16168, 10.46056], [0.164024, 10.453872], [0.172629, 10.450651], [0.172872, 10.446321], [0.166658, 10.441512], [0.17115, 10.433654], [0.169105, 10.430335], [0.174846, 10.424491], [0.182008, 10.423721], [0.185324, 10.417135], [0.190932, 10.416738], [0.190356, 10.404317], [0.1940635, 10.4029412], [0.204823, 10.407621], [0.206565, 10.40444], [0.209414, 10.405477], [0.205131, 10.418255], [0.21202, 10.416859], [0.210301, 10.421577], [0.217696, 10.426923], [0.221175, 10.424884], [0.217467, 10.422733], [0.226351, 10.422359], [0.236562, 10.41248], [0.237685, 10.416186], [0.243825, 10.416008], [0.249433, 10.41372], [0.25095, 10.409245], [0.258364, 10.409907], [0.259261, 10.407587], [0.263693, 10.410979], [0.264008, 10.408852], [0.268474, 10.410213], [0.266437, 10.416074], [0.270297, 10.415553], [0.272723, 10.421028], [0.28595, 10.421586], [0.290147, 10.408986], [0.298203, 10.409881], [0.30042, 10.402501], [0.30079, 10.39177], [0.290406, 10.381846], [0.293335, 10.380422], [0.290316, 10.376406], [0.300788, 10.373168], [0.302375, 10.369475], [0.307491, 10.371501], [0.314475, 10.35958], [0.315591, 10.337967], [0.320639, 10.334092], [0.325378, 10.340454], [0.33264, 10.337403], [0.33837, 10.325151], [0.323024, 10.319501], [0.322023, 10.312677], [0.316134, 10.311155], [0.318671, 10.30864], [0.321268, 10.310123], [0.325059, 10.30683], [0.328885, 10.311724], [0.330526, 10.308247], [0.332073, 10.311486], [0.33631, 10.308323], [0.347815, 10.307637], [0.353309, 10.314248], [0.365773, 10.310746], [0.387855, 10.31558], [0.395816, 10.314269], [0.397303, 10.304534], [0.38837, 10.304018], [0.382731, 10.299074], [0.384691, 10.296807], [0.37877, 10.294614], [0.378149, 10.28632], [0.373192, 10.288387], [0.373277, 10.282712], [0.369517, 10.284839], [0.373019, 10.279985], [0.381983, 10.276936], [0.3817512, 10.2732111], [0.3723297, 10.265674], [0.3644573, 10.2645572], [0.3615908, 10.2581078], [0.3605147, 10.2190168], [0.3553805, 10.2117321], [0.3568507, 10.1975879], [0.3512426, 10.1924296], [0.3547669, 10.1828869], [0.3506759, 10.1683193], [0.3623292, 10.1472054], [0.3636017, 10.1379672], [0.3523933, 10.1111619], [0.3530763, 10.0986805], [0.3563274, 10.0910178], [0.3646555, 10.0855955], [0.3958541, 10.0809759], [0.4160052, 10.0624788], [0.4177473, 10.0576044], [0.4127084, 10.0407017], [0.4146849, 10.0324436], [0.4102291, 10.0209507], [0.426345, 10.0266365], [0.4235336, 10.021577], [0.4317405, 10.0203785], [0.4273879, 10.0069898], [0.4359891, 9.9950824], [0.428834, 9.9899947], [0.4275344, 9.985059], [0.4313292, 9.9669672], [0.4511363, 9.9707241], [0.4534812, 9.9681879], [0.4481688, 9.959399], [0.449458, 9.9568646], [0.4684614, 9.9496646], [0.4851291, 9.957254], [0.4940063, 9.9526094], [0.4996861, 9.9532703], [0.5007502, 9.9503167], [0.51738, 9.9556739], [0.5246653, 9.9529272], [0.5356551, 9.9546621], [0.5376485, 9.9528912], [0.5355572, 9.9450786], [0.5244682, 9.9407966], [0.5200303, 9.926477], [0.5156757, 9.9233158], [0.5190345, 9.9193055], [0.5386787, 9.9169489], [0.5439775, 9.9107671], [0.5450477, 9.8986639], [0.5663329, 9.8856677], [0.6044278, 9.8939416], [0.6248381, 9.8841628], [0.6280098, 9.8942269], [0.6435451, 9.901953], [0.6536624, 9.8877162], [0.6636295, 9.8896504], [0.6746628, 9.9005241], [0.6819262, 9.8963388], [0.673729, 9.9120134], [0.6659314, 9.9169755], [0.6634834, 9.9267013], [0.66923, 9.9342626], [0.6716496, 9.9540731], [0.6837477, 9.9684396], [0.6824245, 10.0072858], [0.6871503, 10.0325689], [0.6963656, 10.0578519], [0.7374707, 10.1222647], [0.7423774, 10.1487088], [0.7475668, 10.1537299], [0.7385831, 10.1621894], [0.7414096, 10.1672423], [0.7518764, 10.1638409], [0.7537341, 10.1721379], [0.7619837, 10.1822238], [0.763322, 10.1780656], [0.7833685, 10.171491], [0.7814563, 10.1803579], [0.7923995, 10.1844328], [0.7957524, 10.1761586], [0.8031093, 10.1761681], [0.8073661, 10.1607096], [0.815277, 10.158538], [0.822702, 10.1636177], [0.8241203, 10.1696005], [0.8433947, 10.1713825], [0.8481611, 10.1848427], [0.8533169, 10.1826642], [0.8597565, 10.1858168], [0.8769319, 10.1771074], [0.8840342, 10.1541279], [0.8891154, 10.1495306], [0.8955274, 10.1498936], [0.9020603, 10.1544908], [0.9029072, 10.1636854], [0.9081094, 10.1719121], [0.9248047, 10.1731219], [0.960978, 10.1645322], [0.9707774, 10.166226], [0.9822966, 10.176859], [1.000278, 10.219444]]]}}, {"type": "Feature", "id": "Kara", "properties": {"region": "Kara"}, "geometry": {"type": "Polygon", "coordinates": [[[0.426345, 10.0266365], [0.4014417, 10.0195712], [0.3935445, 10.0254281], [0.3737762, 10.0263817], [0.3653335, 10.0342219], [0.3604919, 10.0275089], [0.3646734, 10.015588], [0.3615997, 10.0011193], [0.3575824, 9.9971235], [0.3586711, 9.9888846], [0.3694435, 9.9640537], [0.3865763, 9.9510168], [0.3873218, 9.9373878], [0.3597598, 9.9295132], [0.3551758, 9.9218934], [0.3512794, 9.9041698], [0.3511648, 9.8814777], [0.3553477, 9.8738568], [0.357399, 9.8466959], [0.3503053, 9.8258132], [0.338215, 9.8140129], [0.3397048, 9.8041884], [0.3296772, 9.7928956], [0.3360376, 9.778779], [0.3338602, 9.7738098], [0.3250932, 9.7720593], [0.3299637, 9.7611041], [0.3189048, 9.7278978], [0.3243739, 9.7227317], [0.3388096, 9.7222244], [0.3448022, 9.7176855], [0.3515659, 9.6941233], [0.3508783, 9.6748059], [0.3407362, 9.6570126], [0.3229731, 9.6509118], [0.3090492, 9.6585378], [0.3054393, 9.6681971], [0.294495, 9.6801155], [0.2792531, 9.6862722], [0.2638394, 9.6636216], [0.2642978, 9.6536233], [0.2757578, 9.6315919], [0.2773622, 9.6204628], [0.2958524, 9.5956252], [0.3032184, 9.596381], [0.35631, 9.6250745], [0.3711641, 9.6185902], [0.3735083, 9.6066686], [0.38369, 9.5914565], [0.3721374, 9.5789689], [0.3513367, 9.5719628], [0.334265, 9.5785942], [0.3185078, 9.5754376], [0.2894165, 9.5766733], [0.2669094, 9.5665559], [0.2532379, 9.5744023], [0.240063, 9.574648], [0.235455, 9.5482921], [0.2375471, 9.5342995], [0.2432501, 9.5245324], [0.2555609, 9.5194122], [0.2804142, 9.5258031], [0.2970869, 9.5228496], [0.3091514, 9.5127037], [0.3110075, 9.5048893], [0.2867281, 9.4868473], [0.2749678, 9.487396], [0.2697037, 9.4788742], [0.2544832, 9.47779], [0.2300477, 9.4864611], [0.2270527, 9.4783821], [0.2292323, 9.4635077], [0.247938, 9.4424684], [0.2470335, 9.4380382], [0.259315, 9.434362], [0.26088, 9.428705], [0.27031, 9.431703], [0.26887, 9.428434], [0.275777, 9.427417], [0.276954, 9.430489], [0.285293, 9.429867], [0.289238, 9.434335], [0.299549, 9.435899], [0.31252, 9.446243], [0.320243, 9.446184], [0.321981, 9.449116], [0.326958, 9.447012], [0.331704, 9.448234], [0.333538, 9.452689], [0.337541, 9.451738], [0.344853, 9.472447], [0.347592, 9.470866], [0.35049, 9.475308], [0.343547, 9.488299], [0.350153, 9.490041], [0.35025, 9.493223], [0.355152, 9.494033], [0.359421, 9.499213], [0.36929, 9.495957], [0.370362, 9.498652], [0.37615, 9.493141], [0.382582, 9.491746], [0.38218, 9.494373], [0.385628, 9.494057], [0.389012, 9.491553], [0.401419, 9.495434], [0.407512, 9.493985], [0.41165, 9.498473], [0.414978, 9.496388], [0.414599, 9.500684], [0.428808, 9.499612], [0.439062, 9.495069], [0.448704, 9.499486], [0.457068, 9.497879], [0.463334, 9.490115], [0.474178, 9.490675], [0.482625, 9.48503], [0.488754, 9.4869], [0.503259, 9.47449], [0.500625, 9.472325], [0.505662, 9.467607], [0.503861, 9.458388], [0.494772, 9.452177], [0.495306, 9.44599], [0.500131, 9.443724], [0.499967, 9.437939], [0.503435, 9.440452], [0.510051, 9.436926], [0.519308, 9.440312], [0.524573, 9.43165], [0.531605, 9.431874], [0.532789, 9.428491], [0.536018, 9.429773], [0.538159, 9.425858], [0.548823, 9.42224], [0.55502, 9.423136], [0.557033, 9.411167], [0.5670034, 9.4059263], [0.552505, 9.352288], [0.545134, 9.340876], [0.555794, 9.311206], [0.552626, 9.303926], [0.538395, 9.305841], [0.528435, 9.285572], [0.518657, 9.277156], [0.505835, 9.256413], [0.533602, 9.209416], [0.522006, 9.193719], [0.51157, 9.163661], [0.504843, 9.160455], [0.503093, 9.154122], [0.495432, 9.155974], [0.476761, 9.144977], [0.480923, 9.139498], [0.48491, 9.122979], [0.482849, 9.116669], [0.4866973, 9.1086645], [0.482827, 9.099434], [0.473068, 9.096322], [0.46068, 9.071821], [0.463296, 9.069623], [0.462502, 9.05425], [0.457492, 9.055254], [0.456932, 9.052309], [0.456948, 9.035334], [0.463269, 9.03433], [0.465408, 9.022826], [0.470697, 9.019383], [0.468337, 9.004704], [0.494202, 8.954029], [0.503846, 8.952138], [0.509629, 8.941039], [0.516568, 8.938686], [0.509011, 8.918174], [0.512606, 8.914172], [0.512422, 8.901594], [0.515093, 8.901627], [0.522042, 8.889869], [0.522033, 8.883722], [0.527638, 8.878137], [0.5203435, 8.8711456], [0.53861, 8.8609637], [0.5397149, 8.8655014], [0.551128, 8.8720576], [0.5559887, 8.8827935], [0.5596972, 8.8794904], [0.565748, 8.8829858], [0.5738678, 8.8767876], [0.5817806, 8.8824973], [0.5830732, 8.8900111], [0.5770312, 8.9052153], [0.5823376, 8.9074545], [0.5897363, 8.9241192], [0.6005672, 8.92891], [0.5999115, 8.9447836], [0.6157686, 8.9500197], [0.6190071, 8.9610129], [0.6265672, 8.9683347], [0.627566, 8.9976458], [0.6460637, 9.0008418], [0.6539639, 8.9957098], [0.6513013, 8.9876391], [0.6575306, 8.9882729], [0.6611474, 8.9925326], [0.6649475, 8.9903595], [0.671926, 8.99712], [0.6771331, 9.0121069], [0.6852905, 9.0169987], [0.6936622, 9.0159131], [0.698394, 9.0215118], [0.7019522, 9.0210742], [0.7005979, 9.0266507], [0.7054516, 9.0307756], [0.7066203, 9.0367013], [0.7141629, 9.033], [0.7181641, 9.0515234], [0.7239748, 9.057317], [0.7372358, 9.0509319], [0.7523262, 9.0497213], [0.7582431, 9.0511039], [0.7606056, 9.0550048], [0.7669683, 9.0546468], [0.7680125, 9.0616484], [0.7763081, 9.0638709], [0.7821243, 9.0547747], [0.7835681, 9.0382184], [0.7880288, 9.0319012], [0.792889, 9.0315119], [0.7952305, 9.0261982], [0.8058723, 9.0184111], [0.8108602, 9.0250759], [0.8148003, 9.0243882], [0.8168598, 9.0134828], [0.8305927, 9.0106006], [0.8517071, 9.0004279], [0.8632084, 9.0056838], [0.876083, 9.0014452], [0.8874126, 9.0039884], [0.896854, 9.0019538], [0.9030338, 9.0085661], [0.9117885, 9.0112788], [0.9243198, 9.0117874], [0.9322162, 9.0083965], [0.9399451, 9.0148788], [0.9500402, 9.0152565], [0.9556868, 9.0206959], [0.9681667, 9.0218588], [0.965633, 9.027013], [0.9746683, 9.0531687], [0.9792737, 9.0559934], [0.9972408, 9.0543332], [0.9988583, 9.0600613], [1.0069535, 9.0622172], [1.0036309, 9.0750344], [0.9891456, 9.1018717], [0.9874155, 9.1750127], [0.9949652, 9.2012528], [1.0040877, 9.2094815], [1.0220182, 9.2144497], [1.0399487, 9.2141392], [1.0764389, 9.2301302], [1.1149737, 9.2285777], [1.1750566, 9.2138287], [1.210603, 9.2138287], [1.2360832, 9.2186416], [1.2816959, 9.2368058], [1.3488566, 9.2551243], [1.3696182, 9.2517091], [1.435, 9.298056], [1.416667, 9.321111], [1.406944, 9.344722], [1.400278, 9.378611], [1.398056, 9.430278], [1.390556, 9.4875], [1.385, 9.494444], [1.370278, 9.481667], [1.361111, 9.485556], [1.352222, 9.517222], [1.3375, 9.5425], [1.368333, 9.596667], [1.367222, 9.633056], [1.373889, 9.646667], [1.373333, 9.652778], [1.366389, 9.658611], [1.365833, 9.663333], [1.363056, 9.766667], [1.3725, 9.807778], [1.363333, 9.825833], [1.355, 9.995278], [1.152778, 10.120833], [1.098219, 10.149886], [1.000278, 10.219444], [0.9822966, 10.176859], [0.9707774, 10.166226], [0.960978, 10.1645322], [0.9248047, 10.1731219], [0.9081094, 10.1719121], [0.9029072, 10.1636854], [0.9020603, 10.1544908], [0.8955274, 10.1498936], [0.8891154, 10.1495306], [0.8840342, 10.1541279], [0.8769319, 10.1771074], [0.8597565, 10.1858168], [0.8533169, 10.1826642], [0.8481611, 10.1848427], [0.8433947, 10.1713825], [0.8241203, 10.1696005], [0.822702, 10.1636177], [0.815277, 10.158538], [0.8073661, 10.1607096], [0.8031093, 10.1761681], [0.7957524, 10.1761586], [0.7923995, 10.1844328], [0.7814563, 10.1803579], [0.7833685, 10.171491], [0.763322, 10.1780656], [0.7619837, 10.1822238], [0.7537341, 10.1721379], [0.7518764, 10.1638409], [0.7414096, 10.1672423], [0.7385831, 10.1621894], [0.7475668, 10.1537299], [0.7423774, 10.1487088], [0.7374707, 10.1222647], [0.6963656, 10.0578519], [0.6871503, 10.0325689], [0.6824245, 10.0072858], [0.6837477, 9.9684396], [0.6716496, 9.9540731], [0.66923, 9.9342626], [0.6634834, 9.9267013], [0.6659314, 9.9169755], [0.673729, 9.9120134], [0.6819262, 9.8963388], [0.6746628, 9.9005241], [0.662621, 9.8892382], [0.6528297, 9.8880524], [0.6479158, 9.899203], [0.6435451, 9.901953], [0.6280098, 9.8942269], [0.6248381, 9.8841628], [0.6044278, 9.8939416], [0.5663329, 9.8856677], [0.5450477, 9.8986639], [0.5439775, 9.9107671], [0.5386787, 9.9169489], [0.5190345, 9.9193055], [0.5156757, 9.9233158], [0.5200303, 9.926477], [0.5244682, 9.9407966], [0.5355572, 9.9450786], [0.5376485, 9.9528912], [0.5356551, 9.9546621], [0.5246653, 9.9529272], [0.51738, 9.9556739], [0.5007502, 9.9503167], [0.4996861, 9.9532703], [0.4940063, 9.9526094], [0.4851291, 9.957254], [0.4684614, 9.9496646], [0.449458, 9.9568646], [0.4481688, 9.959399], [0.4534812, 9.9681879], [0.4511363, 9.9707241], [0.4304157, 9.9677197], [0.4275344, 9.985059], [0.428834, 9.9899947], [0.4359891, 9.9950824], [0.4273879, 10.0069898], [0.4317405, 10.0203785], [0.4235336, 10.021577], [0.426345, 10.0266365]]]}}, {"type": "Feature", "id": "Centrale", "properties": {"region": "Centrale"}, "geometry": {"type": "Polygon", "coordinates": [[[0.5203435, 8.8711456], [0.516911, 8.863978], [0.521486, 8.858505], [0.519538, 8.852986], [0.508729, 8.855237], [0.507559, 8.847675], [0.495796, 8.839261], [0.501398, 8.828874], [0.496823, 8.827157], [0.495357, 8.820469], [0.500394, 8.814492], [0.491319, 8.800359], [0.472023, 8.799465], [0.469049, 8.79178], [0.463757, 8.80054], [0.459036, 8.802173], [0.459668, 8.80973], [0.448214, 8.811355], [0.44256, 8.801622], [0.430336, 8.797565], [0.430636, 8.790748], [0.437487, 8.794367], [0.441122, 8.78801], [0.42777, 8.779136], [0.423551, 8.781079], [0.424008, 8.789592], [0.417983, 8.79234], [0.399781, 8.793965], [0.397973, 8.78956], [0.392456, 8.796626], [0.390195, 8.790491], [0.380067, 8.792793], [0.382035, 8.77767], [0.378167, 8.771988], [0.389246, 8.761681], [0.399655, 8.761063], [0.40092, 8.756869], [0.395829, 8.75386], [0.373862, 8.754281], [0.385235, 8.745134], [0.3826689, 8.7395378], [0.471471, 8.599504], [0.469556, 8.595649], [0.480062, 8.593759], [0.479999, 8.597922], [0.492079, 8.597099], [0.495754, 8.592437], [0.494326, 8.585559], [0.501519, 8.578999], [0.499727, 8.573448], [0.505177, 8.569712], [0.509952, 8.57188], [0.511813, 8.563565], [0.523799, 8.56396], [0.528011, 8.569472], [0.5318418, 8.5695265], [0.5358238, 8.5577508], [0.54878, 8.552409], [0.553671, 8.553357], [0.551436, 8.548958], [0.563652, 8.54564], [0.564733, 8.538678], [0.571176, 8.533348], [0.57122, 8.524177], [0.573854, 8.527817], [0.580313, 8.523739], [0.583182, 8.526524], [0.5905, 8.516352], [0.601765, 8.518338], [0.611258, 8.513216], [0.624749, 8.511269], [0.630213, 8.507873], [0.626215, 8.503007], [0.629254, 8.496371], [0.63975, 8.497893], [0.645734, 8.493518], [0.644786, 8.475757], [0.649003, 8.472555], [0.650767, 8.461183], [0.656028, 8.455694], [0.651658, 8.44843], [0.653939, 8.445402], [0.651699, 8.43272], [0.654274, 8.428775], [0.651659, 8.42244], [0.671668, 8.417805], [0.679136, 8.410036], [0.686092, 8.411582], [0.688839, 8.405665], [0.696493, 8.40474], [0.693472, 8.395281], [0.705548, 8.394808], [0.699067, 8.38868], [0.709742, 8.385089], [0.707733, 8.384099], [0.711614, 8.379267], [0.708229, 8.377343], [0.712553, 8.376809], [0.707891, 8.371712], [0.711766, 8.366562], [0.710492, 8.351587], [0.720542, 8.349405], [0.717931, 8.34328], [0.725574, 8.34409], [0.73004, 8.34088], [0.727271, 8.33765], [0.730016, 8.333292], [0.728709, 8.316283], [0.731475, 8.314612], [0.729105, 8.290912], [0.731133, 8.286651], [0.710756, 8.289061], [0.688029, 8.280756], [0.683703, 8.276893], [0.681854, 8.265335], [0.674354, 8.259463], [0.638437, 8.260299], [0.638253, 8.245847], [0.624549, 8.237336], [0.623842, 8.23392], [0.627392, 8.231403], [0.626223, 8.224847], [0.619574, 8.219902], [0.61929, 8.215801], [0.601632, 8.214063], [0.588614, 8.202469], [0.590025, 8.194794], [0.599536, 8.186136], [0.613936, 8.185035], [0.612199, 8.175314], [0.607041, 8.172637], [0.610294, 8.163705], [0.609806, 8.145133], [0.606178, 8.139246], [0.591574, 8.138067], [0.592527, 8.103335], [0.586133, 8.103343], [0.584628, 8.093466], [0.592638, 8.061338], [0.597356, 8.061313], [0.598775, 8.056697], [0.597421, 8.044294], [0.593906, 8.040404], [0.60242, 8.022012], [0.597375, 8.014245], [0.598488, 8.008425], [0.607963, 7.996732], [0.607967, 7.991395], [0.597366, 7.989948], [0.596606, 7.986999], [0.603213, 7.962529], [0.60658, 7.960864], [0.60544, 7.956748], [0.612047, 7.949834], [0.610741, 7.945358], [0.613883, 7.944469], [0.611119, 7.940933], [0.614885, 7.926953], [0.617649, 7.926202], [0.6206079, 7.9056882], [0.6821092, 7.9090277], [0.6901787, 7.9150599], [0.6917012, 7.9226001], [0.7037293, 7.9345132], [0.7305261, 7.945672], [0.7390524, 7.9406958], [0.7713303, 7.940545], [0.8066533, 7.9497434], [0.8303677, 7.9616063], [0.8361126, 7.9741082], [0.8435894, 7.9726529], [0.8542711, 7.9608152], [0.8589836, 7.9638735], [0.8651403, 7.9617541], [0.8672728, 7.9644779], [0.8824496, 7.9607746], [0.887515, 7.9678942], [0.9006395, 7.9739115], [0.9052299, 7.970256], [0.9171757, 7.9761561], [0.9256467, 7.9712685], [0.9346593, 7.974107], [0.9390713, 7.9717145], [0.9426678, 7.9763489], [0.9639877, 7.9844566], [0.9671887, 7.9796957], [0.9708522, 7.9809793], [0.9778261, 7.975019], [1.0163473, 7.967118], [1.0230291, 7.9589939], [1.0296469, 7.9566033], [1.0533594, 7.9597389], [1.0789394, 7.9580099], [1.2034169, 7.9826611], [1.2427255, 8.0071669], [1.2335942, 8.0207929], [1.2339937, 8.0267778], [1.2439937, 8.0319137], [1.2474921, 8.0425858], [1.2600682, 8.0578827], [1.2582435, 8.0643228], [1.2646715, 8.0743759], [1.2642264, 8.0855246], [1.2577958, 8.0911523], [1.2571496, 8.0976468], [1.266647, 8.1065457], [1.25698, 8.1085605], [1.2590152, 8.1166197], [1.2649511, 8.1189703], [1.265799, 8.1283724], [1.258676, 8.1416357], [1.2695302, 8.1547308], [1.2669862, 8.1577526], [1.2707174, 8.168329], [1.2690214, 8.1747082], [1.2613895, 8.1814231], [1.2636229, 8.1875827], [1.261563, 8.1977773], [1.2677428, 8.2071221], [1.2613913, 8.2078017], [1.2613913, 8.2149376], [1.2553832, 8.2166366], [1.2546965, 8.22751], [1.2477684, 8.240943], [1.2552299, 8.2401174], [1.2604005, 8.2494479], [1.2512633, 8.2614874], [1.2492034, 8.2805135], [1.2340972, 8.3054679], [1.2347331, 8.3185755], [1.2401608, 8.3254729], [1.2373456, 8.338837], [1.2447355, 8.3456515], [1.2383574, 8.3558518], [1.2510316, 8.3686854], [1.2457823, 8.3745557], [1.2388773, 8.3718317], [1.2358118, 8.3790219], [1.2473946, 8.3832797], [1.613056, 8.374722], [1.623611, 8.399167], [1.624167, 8.425278], [1.631111, 8.451944], [1.640278, 8.456389], [1.659167, 8.486111], [1.660833, 8.496944], [1.624722, 8.548056], [1.627778, 8.881111], [1.619444, 8.910833], [1.621111, 8.95], [1.615556, 8.971389], [1.62, 9.033333], [1.617778, 9.049722], [1.609722, 9.069167], [1.606389, 9.099722], [1.578333, 9.140278], [1.567222, 9.17], [1.510556, 9.210833], [1.493611, 9.228333], [1.462778, 9.270278], [1.435, 9.298056], [1.3696182, 9.2517091], [1.3488566, 9.2551243], [1.2816959, 9.2368058], [1.2360832, 9.2186416], [1.210603, 9.2138287], [1.1750566, 9.2138287], [1.1149737, 9.2285777], [1.0764389, 9.2301302], [1.0399487, 9.2141392], [1.0220182, 9.2144497], [1.0040877, 9.2094815], [0.9949652, 9.2012528], [0.9874155, 9.1750127], [0.9891456, 9.1018717], [1.0036309, 9.0750344], [1.0069535, 9.0622172], [0.9988583, 9.0600613], [0.9972408, 9.0543332], [0.9792737, 9.0559934], [0.9746683, 9.0531687], [0.965633, 9.027013], [0.9681667, 9.0218588], [0.9556868, 9.0206959], [0.9500402, 9.0152565], [0.9399451, 9.0148788], [0.9322162, 9.0083965], [0.9243198, 9.0117874], [0.9117885, 9.0112788], [0.9030338, 9.0085661], [0.896854, 9.0019538], [0.8874126, 9.0039884], [0.876083, 9.0014452], [0.8632084, 9.0056838], [0.8517071, 9.0004279], [0.8305927, 9.0106006], [0.8168598, 9.0134828], [0.8148003, 9.0243882], [0.8108602, 9.0250759], [0.8058723, 9.0184111], [0.7952305, 9.0261982], [0.792889, 9.0315119], [0.7880288, 9.0319012], [0.7835681, 9.0382184], [0.7821243, 9.0547747], [0.7763081, 9.0638709], [0.7680125, 9.0616484], [0.7669683, 9.0546468], [0.7606056, 9.0550048], [0.7582431, 9.0511039], [0.7523262, 9.0497213], [0.7372358, 9.0509319], [0.7239748, 9.057317], [0.7181641, 9.0515234], [0.7141629, 9.033], [0.7066203, 9.0367013], [0.7054516, 9.0307756], [0.7005979, 9.0266507], [0.7019522, 9.0210742], [0.698394, 9.0215118], [0.6936622, 9.0159131], [0.6852905, 9.0169987], [0.6771331, 9.0121069], [0.671926, 8.99712], [0.6649475, 8.9903595], [0.6611474, 8.9925326], [0.6575306, 8.9882729], [0.6513013, 8.9876391], [0.6539639, 8.9957098], [0.6460637, 9.0008418], [0.627566, 8.9976458], [0.6265672, 8.9683347], [0.6190071, 8.9610129], [0.6157686, 8.9500197], [0.5999115, 8.9447836], [0.6005672, 8.92891], [0.5897363, 8.9241192], [0.5823376, 8.9074545], [0.5770312, 8.9052153], [0.5830732, 8.8900111], [0.5817806, 8.8824973], [0.5738678, 8.8767876], [0.565748, 8.8829858], [0.5596972, 8.8794904], [0.5559887, 8.8827935], [0.551128, 8.8720576], [0.5397149, 8.8655014], [0.53861, 8.8609637], [0.5203435, 8.8711456]]]}}, {"type": "Feature", "id": "Plateaux", "properties": {"region": "Plateaux"}, "geometry": {"type": "Polygon", "coordinates": [[[0.6206079, 7.9056882], [0.623881, 7.884681], [0.621332, 7.883309], [0.621684, 7.874517], [0.627468, 7.863519], [0.624213, 7.843457], [0.620003, 7.841485], [0.618505, 7.830114], [0.616976, 7.805768], [0.621987, 7.799292], [0.617196, 7.796369], [0.629615, 7.793153], [0.626795, 7.788642], [0.630072, 7.784386], [0.631076, 7.767771], [0.61909, 7.76437], [0.619026, 7.756898], [0.61306, 7.757287], [0.611397, 7.753867], [0.616958, 7.745428], [0.616225, 7.738648], [0.627113, 7.704283], [0.61927, 7.70329], [0.609167, 7.710892], [0.597536, 7.708373], [0.590358, 7.7031123], [0.583282, 7.670633], [0.586039, 7.622082], [0.560805, 7.613606], [0.553053, 7.606702], [0.543903, 7.608429], [0.528974, 7.59652], [0.51809, 7.592577], [0.524656, 7.588912], [0.52521, 7.581419], [0.518713, 7.511124], [0.521332, 7.51094], [0.523971, 7.502926], [0.523195, 7.493665], [0.529303, 7.486595], [0.526217, 7.482879], [0.530059, 7.480823], [0.520473, 7.472871], [0.523529, 7.463739], [0.519535, 7.460079], [0.522402, 7.458695], [0.52098, 7.454739], [0.525801, 7.458322], [0.532282, 7.457117], [0.534195, 7.450305], [0.530676, 7.448618], [0.534408, 7.447196], [0.531864, 7.443747], [0.538171, 7.431267], [0.535662, 7.426474], [0.538605, 7.422163], [0.543615, 7.421812], [0.553189, 7.405364], [0.568686, 7.392208], [0.598866, 7.400298], [0.602119, 7.404971], [0.61853, 7.412817], [0.62531, 7.410342], [0.629133, 7.399723], [0.633695, 7.403747], [0.644127, 7.40116], [0.643305, 7.391966], [0.649152, 7.379128], [0.643342, 7.376786], [0.641111, 7.371373], [0.648687, 7.356957], [0.658271, 7.317309], [0.650005, 7.304957], [0.651997, 7.292467], [0.647633, 7.294106], [0.64462, 7.289283], [0.643051, 7.253583], [0.633763, 7.206866], [0.624346, 7.182934], [0.616657, 7.181951], [0.614159, 7.174015], [0.61849, 7.17057], [0.615983, 7.157644], [0.609722, 7.153291], [0.604825, 7.15391], [0.605435, 7.141936], [0.603144, 7.13578], [0.596753, 7.133385], [0.59143, 7.113836], [0.591146, 7.111518], [0.596623, 7.114248], [0.602492, 7.107161], [0.611541, 7.105555], [0.614158, 7.099326], [0.610981, 7.097311], [0.614215, 7.095227], [0.614142, 7.090011], [0.597594, 7.062615], [0.604624, 7.03594], [0.60132, 7.033929], [0.603545, 7.022296], [0.592577, 7.01001], [0.59692, 7.006319], [0.589856, 6.99924], [0.577922, 6.99336], [0.570439, 6.996131], [0.549594, 6.991649], [0.541956, 6.98744], [0.533971, 6.976756], [0.522706, 6.973193], [0.52111, 6.968558], [0.525323, 6.963773], [0.52213, 6.96108], [0.526013, 6.955092], [0.521799, 6.947821], [0.522832, 6.943217], [0.54564, 6.93356], [0.54845, 6.936159], [0.55045, 6.927926], [0.559611, 6.929112], [0.566006, 6.921055], [0.558465, 6.887597], [0.55102, 6.880928], [0.535279, 6.876503], [0.543419, 6.864402], [0.542787, 6.861098], [0.531294, 6.856864], [0.531469, 6.833172], [0.534666, 6.834258], [0.532263, 6.828471], [0.539374, 6.825133], [0.546269, 6.827852], [0.544536, 6.830886], [0.548287, 6.833622], [0.561032, 6.824097], [0.56519, 6.825049], [0.569561, 6.809427], [0.57984, 6.807286], [0.576041, 6.803702], [0.575929, 6.798547], [0.56997, 6.801107], [0.569835, 6.792787], [0.566203, 6.788668], [0.569897, 6.785053], [0.566626, 6.782317], [0.577536, 6.774436], [0.572368, 6.773562], [0.581441, 6.761493], [0.600566, 6.756799], [0.608712, 6.746976], [0.609171, 6.749951], [0.618778, 6.754806], [0.625434, 6.747115], [0.631236, 6.749432], [0.650103, 6.737243], [0.641364, 6.72241], [0.648102, 6.712867], [0.642662, 6.688304], [0.646197, 6.686047], [0.649652, 6.674318], [0.642745, 6.664569], [0.635398, 6.641511], [0.640017, 6.63879], [0.636482, 6.633943], [0.643419, 6.632006], [0.657178, 6.607584], [0.666152, 6.604382], [0.664935, 6.608631], [0.66997, 6.608212], [0.673311, 6.613904], [0.691357, 6.598629], [0.68415, 6.597625], [0.691367, 6.59074], [0.704588, 6.587705], [0.728265, 6.593984], [0.741341, 6.584151], [0.747563, 6.562948], [0.72904, 6.549698], [0.728573, 6.546599], [0.7493609, 6.5469798], [0.7778224, 6.5554383], [0.805112799999961, 6.5710221], [0.8250972, 6.5880997], [0.8405689, 6.613074700000084], [0.88290139999998, 6.6514952], [0.8955796, 6.6826563], [0.904389899999956, 6.724272499999984], [0.9031006, 6.7622575], [0.894720099999972, 6.794905100000108], [0.894934899999953, 6.835444800000062], [1.119045799999981, 6.821720200000129], [1.1251237, 6.8162888], [1.1252064, 6.8090816], [1.1362978, 6.8037107], [1.135757399999989, 6.800151400000061], [1.14396249999993, 6.7939654], [1.151256, 6.7938145], [1.1646273, 6.7853651], [1.165539, 6.7791789], [1.1846843, 6.7696731], [1.187115399999925, 6.772690800000078], [1.1906102, 6.7710311], [1.2156815, 6.7480957], [1.23756179999998, 6.734967700000084], [1.2425761, 6.7385893], [1.2459189, 6.7336096], [1.2752446, 6.759563500000013], [1.3059882, 6.794734900000037], [1.3461022, 6.8267204], [1.382569499999931, 6.847841699999947], [1.402626399999974, 6.855083], [1.425114599999915, 6.853876100000093], [1.4536806, 6.843014], [1.4865011, 6.8436175], [1.517498299999943, 6.856289899999979], [1.5339086, 6.8737894], [1.5418098, 6.8949086], [1.555788899999982, 6.911803300000031], [1.577001699999926, 6.922317799999973], [1.5783347, 6.9260288], [1.5801377, 6.9402121], [1.5758721, 6.9427288], [1.5614361, 6.9717524], [1.5591747, 6.997177], [1.6425, 6.995556], [1.643889, 7.425278], [1.650833, 7.478611], [1.649722, 7.510833], [1.655833, 7.5325], [1.649444, 7.553333], [1.648056, 7.598611], [1.641389, 7.636389], [1.639167, 7.757778], [1.645833, 7.776111], [1.638056, 7.846389], [1.634722, 8.357778], [1.613056, 8.369167], [1.613056, 8.374722], [1.2473946, 8.3832797], [1.2369573, 8.3796235], [1.2388773, 8.3718317], [1.2457823, 8.3745557], [1.2510316, 8.3686854], [1.2383574, 8.3558518], [1.2447355, 8.3456515], [1.2373456, 8.338837], [1.2401608, 8.3254729], [1.2347331, 8.3185755], [1.2340972, 8.3054679], [1.2492034, 8.2805135], [1.2512633, 8.2614874], [1.2604005, 8.2494479], [1.2552299, 8.2401174], [1.2477684, 8.240943], [1.2546965, 8.22751], [1.2553832, 8.2166366], [1.2613913, 8.2149376], [1.2613913, 8.2078017], [1.2677428, 8.2071221], [1.261563, 8.1977773], [1.2636229, 8.1875827], [1.2613895, 8.1814231], [1.2690214, 8.1747082], [1.2707174, 8.168329], [1.2669862, 8.1577526], [1.2695302, 8.1547308], [1.258676, 8.1416357], [1.265799, 8.1283724], [1.2649511, 8.1189703], [1.2590152, 8.1166197], [1.25698, 8.1085605], [1.266647, 8.1065457], [1.2571496, 8.0976468], [1.2577958, 8.0911523], [1.2642264, 8.0855246], [1.2646715, 8.0743759], [1.2582435, 8.0643228], [1.2600682, 8.0578827], [1.2474921, 8.0425858], [1.2439937, 8.0319137], [1.2339937, 8.0267778], [1.2335942, 8.0207929], [1.2427255, 8.0071669], [1.2034169, 7.9826611], [1.0789394, 7.9580099], [1.0533594, 7.9597389], [1.0296469, 7.9566033], [1.0230291, 7.9589939], [1.0163473, 7.967118], [0.9778261, 7.975019], [0.9708522, 7.9809793], [0.9671887, 7.9796957], [0.9639877, 7.9844566], [0.9426678, 7.9763489], [0.9390713, 7.9717145], [0.9346593, 7.974107], [0.9256467, 7.9712685], [0.9171757, 7.9761561], [0.9052299, 7.970256], [0.9006395, 7.9739115], [0.887515, 7.9678942], [0.8824496, 7.9607746], [0.8672728, 7.9644779], [0.8651403, 7.9617541], [0.8589836, 7.9638735], [0.8542711, 7.9608152], [0.8435894, 7.9726529], [0.8361126, 7.9741082], [0.8303677, 7.9616063], [0.8066533, 7.9497434], [0.7713303, 7.940545], [0.7390524, 7.9406958], [0.7305261, 7.945672], [0.7037293, 7.9345132], [0.6917012, 7.9226001], [0.6901787, 7.9150599], [0.6821092, 7.9090277], [0.6206079, 7.9056882]]]}}, {"type": "Feature", "id": "Maritime", "properties": {"region": "Maritime"}, "geometry": {"type": "MultiPolygon", "coordinates": [[[[1.083632599999987, 6.1692488], [1.082907, 6.187279], [1.067704000000106, 6.209218], [1.063258, 6.223399], [1.053863, 6.234572000000128], [1.048257, 6.233375], [1.038090000000125, 6.23763], [1.024198, 6.256126], [1.016007000000116, 6.286773], [1.007002, 6.297205], [1.005303, 6.310989], [1.008218000000113, 6.321066], [1.003468, 6.335475], [0.893104, 6.333333], [0.885301, 6.352319000000136], [0.861879, 6.380469000000119], [0.835692, 6.396935], [0.789115, 6.408741], [0.782563, 6.433095], [0.749588, 6.444123], [0.744045, 6.483204], [0.727114, 6.490261], [0.718956, 6.502534], [0.712423, 6.529177], [0.721024, 6.541018], [0.728471, 6.546627], [0.7493609, 6.5469798], [0.7778224, 6.5554383], [0.805112799999961, 6.5710221], [0.8250972, 6.5880997], [0.8405689, 6.613074700000084], [0.88290139999998, 6.6514952], [0.8955796, 6.6826563], [0.904389899999956, 6.724272499999984], [0.9031006, 6.7622575], [0.894720099999972, 6.794905100000108], [0.894934899999953, 6.835444800000062], [1.119045799999981, 6.821720200000129], [1.1251237, 6.8162888], [1.1252064, 6.8090816], [1.1362978, 6.8037107], [1.135757399999989, 6.800151400000061], [1.14396249999993, 6.7939654], [1.151256, 6.7938145], [1.1646273, 6.7853651], [1.165539, 6.7791789], [1.1846843, 6.7696731], [1.187115399999925, 6.772690800000078], [1.1906102, 6.7710311], [1.2156815, 6.7480957], [1.23756179999998, 6.734967700000084], [1.2425761, 6.7385893], [1.2459189, 6.7336096], [1.2752446, 6.759563500000013], [1.3059882, 6.794734900000037], [1.3461022, 6.8267204], [1.382569499999931, 6.847841699999947], [1.402626399999974, 6.855083], [1.425114599999915, 6.853876100000093], [1.4536806, 6.843014], [1.4865011, 6.8436175], [1.517498299999943, 6.856289899999979], [1.5339086, 6.8737894], [1.5418098, 6.8949086], [1.555788899999982, 6.911803300000031], [1.577001699999926, 6.922317799999973], [1.583630600000049, 6.910086500000091], [1.605765400000053, 6.9050547], [1.602627699999971, 6.89025], [1.6072352, 6.879724100000033], [1.597227400000065, 6.868427300000064], [1.601397800000029, 6.837523799999985], [1.597624300000064, 6.830920099999958], [1.602026799999976, 6.826517600000045], [1.609888399999988, 6.828404400000011], [1.612561299999982, 6.825102500000014], [1.6028129, 6.819442100000117], [1.595414700000049, 6.809167000000116], [1.594322400000067, 6.799473600000113], [1.607358700000077, 6.796667], [1.613976400000013, 6.789725199999964], [1.608316100000081, 6.7718008], [1.616334900000084, 6.76378190000014], [1.624668200000031, 6.763467500000047], [1.622914700000081, 6.757778], [1.615548700000033, 6.754033500000048], [1.6232531, 6.737366899999984], [1.620894600000042, 6.734222300000056], [1.604783900000029, 6.7331375], [1.596247700000049, 6.719444], [1.596909900000128, 6.728798700000027], [1.590803400000027, 6.7278346], [1.591525699999977, 6.717778], [1.588469700000076, 6.713611], [1.593213900000023, 6.702123299999982], [1.581483100000014, 6.690231800000049], [1.5754397, 6.691279400000042], [1.575055300000031, 6.688464099999976], [1.58084029999992, 6.683803900000044], [1.585982600000136, 6.687499899999921], [1.5901222, 6.681337300000052], [1.5882479, 6.674197100000072], [1.596280700000079, 6.675892900000065], [1.598690499999975, 6.670716200000015], [1.607705099999976, 6.664825500000063], [1.607615800000076, 6.660005900000044], [1.6043027, 6.657778000000121], [1.607437300000015, 6.652419300000076], [1.615559400000052, 6.650991300000101], [1.612346200000104, 6.644386600000018], [1.6024392, 6.645011300000021], [1.602573, 6.636353800000109], [1.606946400000083, 6.632515899999987], [1.604025700000022, 6.625556], [1.611676899999964, 6.626893], [1.6101595, 6.613415800000041], [1.624350800000059, 6.601723600000014], [1.628367200000014, 6.603865699999972], [1.6352397, 6.601277400000072], [1.646307, 6.581864800000062], [1.652554700000053, 6.580258299999969], [1.652822500000013, 6.575170800000024], [1.662104800000122, 6.581775600000128], [1.667192200000045, 6.57972280000007], [1.666046, 6.5732721], [1.6579147, 6.575], [1.658177700000067, 6.571957700000098], [1.667995500000075, 6.56629020000014], [1.6710301, 6.555579799999975], [1.680133900000044, 6.563880300000051], [1.6839718, 6.562184500000058], [1.687095699999986, 6.551027899999951], [1.697641299999987, 6.55523450000004], [1.693432600000108, 6.546654499999931], [1.701819300000011, 6.53787], [1.699276600000132, 6.534247600000128], [1.7027597, 6.531879100000083], [1.699833900000044, 6.52560950000003], [1.701923799999975, 6.514881600000081], [1.701645199999973, 6.512373700000012], [1.692031800000052, 6.519339899999977], [1.695514900000092, 6.5101446], [1.693843000000129, 6.504432300000019], [1.702341800000056, 6.505686200000014], [1.705128300000069, 6.498023400000022], [1.712295499999925, 6.504521500000124], [1.716985800000089, 6.500166200000024], [1.718605100000104, 6.4924049], [1.724300500000084, 6.492237399999965], [1.729751, 6.486842500000023], [1.737813100000096, 6.487770400000045], [1.738539000000117, 6.483973499999934], [1.731224300000065, 6.478501399999971], [1.7347979, 6.474537], [1.737422200000083, 6.479059800000016], [1.744960200000094, 6.473699400000044], [1.752609899999925, 6.4750954000001], [1.753112400000134, 6.469902500000103], [1.749483, 6.469232500000089], [1.746523700000125, 6.46353709999994], [1.758389100000102, 6.460298500000022], [1.753475400000127, 6.455049800000097], [1.7549272, 6.446283400000027], [1.764754500000095, 6.440197200000057], [1.767155499999944, 6.432212400000026], [1.778975900000091, 6.427037300000109], [1.777473100000122, 6.4231683000001], [1.771587400000044, 6.425532700000133], [1.7694699, 6.417409900000052], [1.7639484, 6.413054300000113], [1.765963500000112, 6.40674150000001], [1.776102600000058, 6.407756499999948], [1.76786020000003, 6.397087900000088], [1.77309710000003, 6.395006200000012], [1.774155800000074, 6.386543600000039], [1.785141800000076, 6.383225799999934], [1.782491400000026, 6.372884100000135], [1.787045200000023, 6.351864199999966], [1.779929900000013, 6.345110700000021], [1.787400900000137, 6.341362700000104], [1.784661500000141, 6.333318500000132], [1.7910938, 6.3355391], [1.791349900000057, 6.328226799999982], [1.796871399999986, 6.3235876], [1.796014800000023, 6.313058799999965], [1.788321399999916, 6.308660800000041], [1.793448399999932, 6.306117799999981], [1.791944, 6.296389], [1.8025, 6.280278], [1.778611000000126, 6.278889], [1.765278, 6.271111], [1.747222, 6.270278], [1.739444, 6.264167], [1.722500000000139, 6.265278], [1.714722, 6.259444], [1.703056, 6.260556], [1.693889, 6.255833], [1.684444, 6.258889], [1.6675, 6.248333], [1.656667000000141, 6.25], [1.6302541, 6.234909500000015], [1.523550600000135, 6.209856800000125], [1.486298, 6.204521], [1.418935700000077, 6.187676200000055], [1.407043, 6.183413], [1.401639, 6.181851], [1.401124, 6.181849], [1.400353, 6.181589], [1.398808, 6.181327], [1.3970080170959225, 6.181064148526606], [1.395555019000028, 6.196945190000065], [1.398144960000025, 6.213856220000025], [1.392778039000063, 6.215278149000028], [1.343611002000046, 6.207221985000047], [1.301110983000058, 6.190834045000031], [1.28305602100005, 6.190278053000043], [1.266389012000047, 6.19500017200005], [1.25194394600004, 6.208333015000051], [1.23472201800007, 6.243054867000069], [1.21388900300002, 6.264166832000058], [1.18444502400007, 6.277778149000028], [1.141111016000025, 6.286110878000045], [1.124444008000069, 6.277778149000028], [1.114444017000039, 6.257778168000073], [1.1060996839100798, 6.169280312957512], [1.083632599999987, 6.1692488]]], [[[1.1996094566315445, 6.112470759529575], [1.1994341843318468, 6.168547916228154], [1.200319576000027, 6.168551584000056], [1.1996094566315445, 6.112470759529575]]], [[[1.2011666649635373, 6.113006297810284], [1.199649299999976, 6.112432599999977], [1.199624200000017, 6.112430099999926], [1.199649300000033, 6.112432600000034], [1.200719500000048, 6.112843300000065], [1.2011666649635373, 6.113006297810284]]], [[[1.203005099999984, 6.113544499999932], [1.2020893656818006, 6.113294230519974], [1.204759900000056, 6.114226100000053], [1.203005099999984, 6.113544499999932]]], [[[1.2196586, 6.119534699999974], [1.2190240228782296, 6.119322437269398], [1.2212588540111013, 6.120175092471591], [1.2196586, 6.119534699999974]]], [[[1.224817700000017, 6.121516199999974], [1.2242319998108906, 6.1213186960688954], [1.225361174592697, 6.121689292935354], [1.224817700000017, 6.121516199999974]]], [[[1.228632300000129, 6.1230195], [1.2277886431059921, 6.122631232894039], [1.2286323487508033, 6.123019518510724], [1.228632300000129, 6.1230195]]], [[[1.2360454039165456, 6.125352801038542], [1.23034760000013, 6.12367080000007], [1.2303475951400873, 6.123670798154732], [1.2360454039165456, 6.125352801038542]]], [[[1.251853299999937, 6.129500199999939], [1.2502499827868128, 6.12921563233317], [1.2528625573217023, 6.129665525093805], [1.251853299999937, 6.129500199999939]]], [[[1.25373, 6.129917199999966], [1.2531415717088, 6.129736928291203], [1.2551191000000084, 6.1304873666666895], [1.25373, 6.129917199999966]]], [[[1.261783600000058, 6.133021199999973], [1.2604881666667136, 6.132556700000028], [1.2619006153995196, 6.1332037066816785], [1.261783600000058, 6.133021199999973]]], [[[1.2626696269164566, 6.134023935900606], [1.262306400000114, 6.133834500000091], [1.2622870959799124, 6.133804295303896], [1.2626696269164566, 6.134023935900606]]], [[[1.2638470728682636, 6.134215920930276], [1.263035900000091, 6.134127900000067], [1.2628615500000535, 6.134077250000047], [1.2638470728682636, 6.134215920930276]]], [[[1.266243799999927, 6.134026600000027], [1.266233158593681, 6.134026664901585], [1.266243799999951, 6.134026600000028], [1.266243799999927, 6.134026600000027]]], [[[1.267177300000071, 6.134047899999985], [1.2662846929775093, 6.134027533069572], [1.267787966168885, 6.134072611710755], [1.267177300000071, 6.134047899999985]]], [[[1.272581600000137, 6.134896200000014], [1.2712456000001, 6.134619900000075], [1.2711275081759892, 6.134589302650767], [1.271245600000043, 6.134619900000075], [1.272581600000024, 6.134896200000071], [1.2730192076757456, 6.135001165224007], [1.272581600000137, 6.134896200000014]]], [[[1.276094300000011, 6.135127399999988], [1.274541, 6.135255700000073], [1.277849, 6.134845300000052], [1.276094300000011, 6.135127399999988]]], [[[1.2800757634012905, 6.134905803687247], [1.280600648000075, 6.134936329000027], [1.2821356891748072, 6.135025599370522], [1.2800757634012905, 6.134905803687247]]], [[[1.285183600000096, 6.135221800000124], [1.2851836000000918, 6.1352218000001235], [1.2851914444451056, 6.135230173560641], [1.285183600000096, 6.135221800000124]]], [[[1.284439900000052, 6.136224100000106], [1.284771803100814, 6.135887006976785], [1.2835726487736396, 6.13708995178917], [1.284439900000052, 6.136224100000106]]], [[[1.281730800000048, 6.139002300000129], [1.2819802857138183, 6.138742111169972], [1.280083400000024, 6.140635], [1.281730800000048, 6.139002300000129]]], [[[1.280083400000024, 6.140635], [1.280576900000028, 6.141267], [1.280576900000098, 6.141266999999944], [1.280083400000024, 6.140635]]], [[[1.281596200000138, 6.1412937], [1.283465700000079, 6.139800300000047], [1.283047200000112, 6.1392866], [1.283465700000022, 6.139800300000047], [1.281596200000138, 6.1412937]]], [[[1.281177200000059, 6.1418175], [1.281177700000104, 6.141648400000025], [1.281333300000028, 6.141933700000038], [1.281177200000059, 6.1418175]]], [[[1.2827492000000469, 6.1420700000000785], [1.282749200000069, 6.14207], [1.2825131359594966, 6.141994633059924], [1.2827492000000469, 6.1420700000000785]]], [[[1.282455399999947, 6.141976199999988], [1.282455400000066, 6.141976200000026], [1.2824678539984173, 6.141937785554422], [1.282455399999947, 6.141976199999988]]], [[[1.282994700000017, 6.142077700000016], [1.2827744989546084, 6.142016768345311], [1.2829947000000068, 6.142077700000054], [1.282994700000017, 6.142077700000016]]], [[[1.282710400000099, 6.142333700000052], [1.2827653476764123, 6.142129833872182], [1.283088, 6.14243620000002], [1.282710400000099, 6.142333700000052]]], [[[1.285297599999922, 6.140891], [1.283404499999961, 6.1424255], [1.283088, 6.14243620000002], [1.283404500000074, 6.142425500000058], [1.285297599999922, 6.140891]]], [[[1.285058700000093, 6.14114080000013], [1.2851949584495108, 6.141026832679392], [1.2852004922330331, 6.1413268416569995], [1.285058700000093, 6.14114080000013]]], [[[1.2857893000000122, 6.142099400000036], [1.285789300000033, 6.142099400000063], [1.28608470000006, 6.141874400000063], [1.2857893000000122, 6.142099400000036]]], [[[1.286102, 6.141900500000133], [1.2861019999999754, 6.141900500000096], [1.2854361071157476, 6.142434610373661], [1.286102, 6.141900500000133]]], [[[1.286343699999975, 6.144101799999987], [1.2857495507932353, 6.143898238387608], [1.286392, 6.144083200000068], [1.286343699999975, 6.144101799999987]]], [[[1.286392, 6.144083200000068], [1.286432200000036, 6.144020200000057], [1.2864322000000337, 6.1440202000000035], [1.286392, 6.144083200000068]]], [[[1.286430100000018, 6.143974899999989], [1.2864321030278414, 6.144018108171245], [1.2864230081365475, 6.143946532545993], [1.286430100000018, 6.143974899999989]]], [[[1.2864075087003342, 6.143896141060141], [1.2864295, 6.1436165], [1.286383899999919, 6.1438336], [1.2864075087003342, 6.143896141060141]]], [[[1.286547100000121, 6.144029600000067], [1.286578400000053, 6.143813200000068], [1.286496600000021, 6.144445900000051], [1.286547100000121, 6.144029600000067]]], [[[1.2871768719440528, 6.144978630751046], [1.287172700000042, 6.144996], [1.287172700000065, 6.14499600000001], [1.2871768719440528, 6.144978630751046]]], [[[1.287544600000047, 6.145151699999985], [1.287414536612067, 6.145097247541011], [1.2878, 6.145115600000054], [1.287544600000047, 6.145151699999985]]], [[[1.287940300000116, 6.145138], [1.2878, 6.145115600000054], [1.28807050000006, 6.145358300000055], [1.287940300000116, 6.145138]]], [[[1.28807050000006, 6.145358300000055], [1.288427300000023, 6.145414300000027], [1.2884273000000246, 6.145414300000018], [1.28807050000006, 6.145358300000055]]], [[[1.289030800000035, 6.144602700000064], [1.289030800000091, 6.144602700000064], [1.288605100000041, 6.144452], [1.289030800000035, 6.144602700000064]]], [[[1.2904952500000495, 6.145915800000068], [1.290345000000116, 6.144850200000121], [1.2903450000000023, 6.144850200000117], [1.290382600000044, 6.145763900000077], [1.2904952500000495, 6.145915800000068]]], [[[1.291036200000121, 6.14640380000003], [1.2908495403446514, 6.1462573225072035], [1.2911937113203222, 6.146472647838666], [1.291036200000121, 6.14640380000003]]], [[[1.2926670815815022, 6.147033741174252], [1.293505200000141, 6.1473997], [1.292859199999953, 6.1471009], [1.2926670815815022, 6.147033741174252]]], [[[1.302430000000129, 6.151308599999936], [1.3020393999993596, 6.151248799999816], [1.302825700000028, 6.151318500000059], [1.302430000000129, 6.151308599999936]]], [[[1.303091100000074, 6.151358400000049], [1.303091100000131, 6.1513584], [1.302825700000028, 6.151318500000059], [1.303091100000074, 6.151358400000049]]], [[[1.306096100000047, 6.1523393], [1.3060960999981959, 6.152339299999228], [1.307072700000049, 6.152613200000076], [1.306096100000047, 6.1523393]]], [[[1.309196200000088, 6.153385], [1.3090173680519903, 6.153301892207792], [1.3093139000000351, 6.153419850000027], [1.309196200000088, 6.153385]]], [[[1.311014300000011, 6.153838099999973], [1.3106818522606773, 6.1537326742407235], [1.3113216447426403, 6.153969135984702], [1.311014300000011, 6.153838099999973]]], [[[1.312376500000141, 6.1543709], [1.3120734852815155, 6.154289115154903], [1.3128813543958648, 6.154493169424038], [1.312376500000141, 6.1543709]]], [[[1.313428300000112, 6.154585099999963], [1.312981704418662, 6.154514985056945], [1.3135893528631422, 6.154612341410812], [1.313428300000112, 6.154585099999963]]], [[[1.3142947, 6.154714500000011], [1.3140056095401913, 6.154673456575555], [1.3144661565046036, 6.154764436101818], [1.3142947, 6.154714500000011]]], [[[1.315767100000016, 6.1550681], [1.3154179777141144, 6.154993313616442], [1.316185688362492, 6.15518015217826], [1.315767100000016, 6.1550681]]], [[[1.3170810000001445, 6.155480232407486], [1.318742100000122, 6.1561934], [1.318015900000091, 6.155869800000062], [1.3170810000001445, 6.155480232407486]]], [[[1.324717000000135, 6.158235], [1.32254840000013, 6.1573138], [1.321566700000062, 6.157000099999948], [1.321281679435914, 6.156916089697702], [1.324717000000135, 6.158235]]], [[[1.326925600000095, 6.1591113], [1.326199400000064, 6.158907200000044], [1.3270496169878838, 6.1591769631008555], [1.326925600000095, 6.1591113]]], [[[1.327696899999978, 6.159494799999948], [1.3275187939826687, 6.15941011460854], [1.328092500000025, 6.159674], [1.327696899999978, 6.159494799999948]]], [[[1.328949, 6.1599329], [1.328092500000025, 6.159674], [1.3290771813471673, 6.159974830051861], [1.328949, 6.1599329]]], [[[1.329675077180015, 6.160157454801173], [1.330010700000059, 6.160261600000013], [1.329725300000121, 6.160172], [1.329675077180015, 6.160157454801173]]], [[[1.331588300000078, 6.160784400000068], [1.3315487529088874, 6.160771493211505], [1.3316336531799173, 6.160803923291741], [1.331588300000078, 6.160784400000068]]], [[[1.3318856361941547, 6.160878675887018], [1.332700200000033, 6.1611031], [1.332209400000124, 6.160943799999927], [1.3318856361941547, 6.160878675887018]]], [[[1.3342477, 6.162039199999981], [1.3341709284901706, 6.161990136324672], [1.334493200000054, 6.162089], [1.3342477, 6.162039199999981]]], [[[1.334753600000113, 6.162233400000048], [1.334731523837039, 6.162210183753489], [1.334933900000048, 6.162372833333374], [1.334753600000113, 6.162233400000048]]], [[[1.337227700000028, 6.163184500000057], [1.336005699999987, 6.16288069999996], [1.335863637779216, 6.162843684770005], [1.337227700000028, 6.163184500000057]]], [[[1.337553200000116, 6.163199400000053], [1.337227700000028, 6.163184500000057], [1.337908800000037, 6.163209400000028], [1.337553200000116, 6.163199400000053]]], [[[1.338094099999921, 6.163254199999983], [1.337908800000037, 6.163209400000028], [1.3382324144610742, 6.163301622100967], [1.338094099999921, 6.163254199999983]]], [[[1.338484800000117, 6.163493200000062], [1.3384346023392313, 6.163423364132604], [1.3387081394714178, 6.163733376391642], [1.338484800000117, 6.163493200000062]]], [[[1.3387301999999994, 6.163757100000008], [1.338730200000043, 6.163757100000055], [1.3388058144655584, 6.16380374410408], [1.3387301999999994, 6.163757100000008]]], [[[1.340170050000012, 6.16415795000006], [1.33960159999998, 6.1641305], [1.3394894185024124, 6.164101038619563], [1.340170050000012, 6.16415795000006]]], [[[1.343753000000106, 6.164922], [1.3435824912809708, 6.164857919841107], [1.34401, 6.165181], [1.343753000000106, 6.164922]]], [[[1.344524, 6.16544], [1.34481820000002, 6.165623700000026], [1.344818200000071, 6.165623700000044], [1.344524, 6.16544]]], [[[1.3460928948933362, 6.1659060706356845], [1.345309900000132, 6.1657363], [1.3452275950986812, 6.165725009184215], [1.345610100000044, 6.165828600000054], [1.3460928948933362, 6.1659060706356845]]], [[[1.34696850000006, 6.166038399999934], [1.346673633333372, 6.165996533333366], [1.347505100000035, 6.166118], [1.34696850000006, 6.166038399999934]]], [[[1.348164900000086, 6.166288800000075], [1.347505100000035, 6.166118], [1.349412, 6.166744], [1.348164900000086, 6.166288800000075]]], [[[1.358159000000114, 6.169348], [1.357644, 6.169346], [1.3582954320988188, 6.169484962963017], [1.358159000000114, 6.169348]]], [[[1.359443000000113, 6.170383], [1.359187, 6.170124], [1.359701, 6.170384], [1.359443000000113, 6.170383]]], [[[1.35995800000012, 6.170384], [1.359958, 6.170384], [1.360988, 6.170645], [1.35995800000012, 6.170384]]], [[[1.362788000000137, 6.171166], [1.362274, 6.170907], [1.364075, 6.171428], [1.362788000000137, 6.171166]]], [[[1.365362000000118, 6.17169], [1.3653610922463544, 6.171689996481575], [1.365876, 6.171949], [1.365362000000118, 6.17169]]], [[[1.369991000000141, 6.173508], [1.369477, 6.173248], [1.370248, 6.173766], [1.369991000000141, 6.173508]]], [[[1.371792000000141, 6.174029000000132], [1.3717920000001271, 6.174029000000128], [1.372049, 6.174287], [1.371792000000141, 6.174029000000132]]], [[[1.376938000000109, 6.175591], [1.376423, 6.175331], [1.377083267847736, 6.175664199168412], [1.376938000000109, 6.175591]]], [[[1.38285500000012, 6.177413], [1.381825, 6.177152], [1.384142, 6.177674], [1.38285500000012, 6.177413]]], [[[1.385942000000114, 6.178195], [1.3856621936407614, 6.178138211928646], [1.386457, 6.178454], [1.385942000000114, 6.178195]]], [[[1.390315, 6.179755], [1.390315000000101, 6.179755], [1.389801, 6.179495], [1.390315, 6.179755]]], [[[1.392632000000106, 6.18002], [1.3926311858069, 6.180019996831933], [1.393404, 6.18028], [1.392632000000106, 6.18002]]], [[[1.394433000000106, 6.18054], [1.394433, 6.18054], [1.395462, 6.180801], [1.394433000000106, 6.18054]]], [[[1.39597700000013, 6.180803], [1.395462, 6.180801], [1.396235, 6.180804], [1.39597700000013, 6.180803]]]]}}, {"type": "Feature", "id": "Grand Lom\u00e9", "properties": {"region": "Grand Lom\u00e9"}, "geometry": {"type": "Polygon", "coordinates": [[[1.262500048000049, 6.19750022900007], [1.28305602100005, 6.190278053000043], [1.301110983000058, 6.190834045000031], [1.343611002000046, 6.207221985000047], [1.392778039000063, 6.215278149000028], [1.398144960000025, 6.213856220000025], [1.395555019000028, 6.196945190000065], [1.397916025000029, 6.181196745000022], [1.297096200000055, 6.149540900000034], [1.284561500000052, 6.143491200000028], [1.285297600000035, 6.140891], [1.281333300000028, 6.141933700000038], [1.283047200000055, 6.139286600000048], [1.280576900000028, 6.141267], [1.285183600000039, 6.135221800000068], [1.262440500000025, 6.13398920000003], [1.199609310000028, 6.112424249000071], [1.200319576000027, 6.168551584000056], [1.105740163000064, 6.168159789000072], [1.114444017000039, 6.257778168000073], [1.118610978000049, 6.268888950000076], [1.12750005700002, 6.280278206000048], [1.141111016000025, 6.286110878000045], [1.165555, 6.282777786000054], [1.199445009000044, 6.271945], [1.21388900300002, 6.264166832000058], [1.231111050000038, 6.24777698500003], [1.25194394600004, 6.208333015000051], [1.262500048000049, 6.19750022900007]]]}}]}